id,name,street,city,state,accessible,unisex,directions,comment,latitude,longitude,created_at,updated_at,downvote,upvote,country,changing_table,edit_id,approved
2829,Cleveland Metro Parks,Located throughout the park reservations,Cleveland,OH,False,False,Cleveland Metro Park reservations are located all over Cuyahoga County as well as one reservation in Medina County.,"The Cleveland Metro Parks system has many single stall locking restrooms located throughout the various reservations.  Some are marked gender specific, some are gender neutral.",41.4994954,-81.6954088,2014-02-02T20:53:02.804Z,2014-02-02T20:53:02.804Z,1,0,US,False,2829,True
20086,Cleveland Hall,Cleveland Hall,Pullman,WA,False,True,1st Floor East,,46.7286784,-117.1662418,2016-02-01T00:10:51.526Z,2016-02-01T00:10:51.526Z,0,0,US,False,20086,True
53446,"Anzac Pde before Cleveland St, Moore Park NSW 2021, Australia",Anzac Pde before Cleveland St,Moore Park,New South Wales,False,True,Up near the cafe,,-33.8957666,151.2214733,2019-10-18T02:49:45.924Z,2019-10-18T02:49:46.034Z,0,0,AU,False,53446,True
42129,Cleveland Clinic,9500 Euclid Ave,Cleveland ,Ohio,True,False,,Any hospital in the Cleveland Clinic system allows anyone to use the restroom of the gender they identify with. There are also plenty of unisex restrooms throughout the hospitals. ,41.5025172,-81.6224108,2018-06-29T00:16:06.661Z,2018-06-29T00:16:06.661Z,0,0,US,True,42129,True
6143,The LGBT Community Center of Greater Cleveland ,6600 Detroit Avenue,Cleveland,Ohio,False,False,Go down the stairs and turn left after the front desk.,One bathroom for people who identify as men and one for people who identify as women. Open to the public. ,41.4840715,-81.73098,2014-07-19T03:22:34.649Z,2014-07-19T03:22:34.649Z,1,2,United States,False,6143,True
16801,"126 Farris Road, Cleveland, TN 37323, USA",126 Farris Road,Cleveland,Tennessee,True,True,,,35.104236,-84.875382,2015-03-20T02:29:37.157Z,2015-03-20T02:29:37.157Z,0,1,US,False,16801,True
17853,Cleveland Library,21 Bloomfield Street,Cleveland,Queensland,True,True,"Walk in the main enterance, to your right before the barcode sensors. Librarians should be happy to direct you in case you miss it.",Only accessible when the library is open.,-27.525607,153.266814,2015-06-24T06:07:04.786Z,2015-06-24T06:07:04.786Z,0,0,AU,False,17853,True
23933,Hilton Cleveland Downtown Hotel,100 Lakeside Ave E,Cleveland,Ohio,True,True,In the front lobby on the left.,Family restroom.,41.5029479,-81.6965808,2016-07-10T00:46:52.122Z,2016-07-10T00:46:52.122Z,0,0,US,False,23933,True
26491,The Cleveland Institute of Art,11610 Euclid Ave. ,Cleveland,Ohio,True,False,There are two single stall restrooms on the first floor next to the freight elevator,,41.5104477,-81.6023986,2016-11-13T20:42:31.234Z,2016-11-13T20:42:31.234Z,0,1,US,False,26491,True
33559,Cleveland Heights Library,2345 Lee Rd,Cleveland Heights,Ohio,False,True,In the kids' section amongst the fiction DVD shelves,"Might smell like diapers, but it's a single family bathroom with a trash can, and the library is very LGBTQ+ friendly. You won't get any looks.",41.4957369,-81.5646573,2017-04-03T04:13:52.778Z,2017-04-03T04:13:52.778Z,0,0,US,False,33559,True
35625,Cleveland Clinic Main,9500 Euclid Ave,Cleveland,Ohio,True,True,"First floor, walk toward the back past the gendered restrooms. There are two unisex restrooms",,41.5013723,-81.620719,2017-06-09T06:42:11.997Z,2017-06-09T06:42:11.997Z,0,1,US,False,35625,True
35626,Cleveland Clinic Crile Building,2049 East 100th St,Cleveland,Ohio,False,True,"Hard to find
First floor: turn down hallway labeled A14 (I think), go past desk, 2 unisex restrooms
Fourth floor: turn right at lobby, go to sign ""B"" there are 2 unisex restrooms. These are accessible.",,41.5023214,-81.6177211,2017-06-09T06:47:26.293Z,2017-06-09T06:47:26.293Z,0,0,US,False,35626,True
36793,Grover Cleveland service area,Sewaren,Cleveland ,New Jersey ,True,True,,"Enter the service building where there's food areas and right in front there is a family bathroom, unlocked and no one cared.",40.556982,-74.2632034,2017-08-03T17:30:29.071Z,2017-08-03T17:30:29.071Z,0,1,US,True,36793,True
38787,"3172 W 11th St, Cleveland, OH 44109, USA",3172 W 11th St,Cleveland,Ohio,True,True,In the corner of the Christmas Story House gift shop there are two single stall restrooms,"I think one has a table, and one doesn’t. ",41.4683899,-81.6878342,2017-11-24T21:10:47.898Z,2017-11-24T21:10:47.898Z,0,0,US,False,38787,True
48242,"2121 Euclid Ave, Cleveland, OH 44115, USA",2121 Euclid Ave,Cleveland,Ohio,True,True,Second floor in the student center ,,41.5022777,-81.6752568,2019-03-18T17:57:04.701Z,2019-03-18T17:57:04.796Z,0,0,US,False,48242,True
50453,"10026 Lorain Ave, Cleveland, OH 44111, USA",10026 Lorain Ave,Cleveland,Ohio,False,False,,,41.4670222,-81.7536391,2019-06-16T16:37:40.560Z,2019-06-16T16:37:40.583Z,0,0,US,False,50453,True
4021,Cleveland Hall ,61 E. Grace,Harrisonburg,VA,True,True,1 bathroom on second floor across from stairs and includes a bathtub,,38.440941,-78.873471,2014-02-02T20:54:59.468Z,2014-02-02T20:54:59.468Z,1,0,US,False,4021,True
19096,Cleveland,SCCQVjtWpPjwUrEpzmT,New York,NY,False,False,"What's the exchange rate for euros? <a href="" http://filplast.eu/?how-can-i-buy-clomid-online.pptx#infect "">can i buy clomid tablets</a>  ""We are like brothers,â Rivera said of Jeter. âAll he said was 'Remember you are the best.' We played for so many years together. We went through good times and bad times and at the same time. I don't know what he is going to do but I need to be there for him.""
 ","What's the exchange rate for euros? <a href="" http://filplast.eu/?how-can-i-buy-clomid-online.pptx#infect "">can i buy clomid tablets</a>  ""We are like brothers,â Rivera said of Jeter. âAll he said was 'Remember you are the best.' We played for so many years together. We went through good times and bad times and at the same time. I don't know what he is going to do but I need to be there for him.""
 ",40.7127753,-74.0059728,2015-10-27T23:15:46.359Z,2020-04-14T21:12:28.997Z,0,0,BB,False,19096,True
23561,Grover Cleveland Travel Plaza,New Jersey Turnpike Northbound,Woodbridge Township,New Jersey,True,True,,Family/unisex restroom,40.563251,-74.282973,2016-06-24T22:42:42.301Z,2016-06-24T22:42:42.301Z,0,0,US,False,23561,True
27720,Cleveland Hall,61 E. Grace St,Harrisonburg,VA,False,True,"Second floor, across from the stairs, includes bathtub.",,38.4399889,-78.8739276,2017-01-23T01:07:14.128Z,2017-01-23T01:07:14.128Z,0,0,US,False,27720,True
27721,Cleveland Hall,61 E. Grace St,Harrisonburg,VA,False,True,"Second floor, across from the stairs, includes bathtub.",,38.4399889,-78.8739276,2017-01-23T01:07:14.370Z,2017-01-23T01:07:14.370Z,0,0,US,False,27721,True
27722,Cleveland Hall,61 East Grace Street,Harrisonburg,Virginia,False,True,Second floor across from staircase,,38.4399989,-78.8739326,2017-01-23T01:07:54.168Z,2020-04-14T21:15:09.978Z,0,0,US,False,27722,True
40197,Grover Cleveland service area,NJ Turnpike,Sewaren,New Jersey,True,True,In between the women's and men's restrooms,"This is a ""family"" unisex single occupancy bathroom",40.5587764,-74.263756,2018-03-01T14:49:16.289Z,2018-03-01T14:49:16.289Z,0,1,US,True,40197,True
47254,Cleveland Vegan,17112 Detroit Avenue,Lakewood,OH,True,True,"Down the hall, in between the counter and the bakery","It's a restaurant, but they're pretty chill. If you ask to use the restroom they'll likely let you.",41.485625,-81.8161947,2019-02-01T14:06:09.029Z,2019-02-01T14:06:09.075Z,0,0,US,False,47254,True
47255,Cleveland Vegan,17112 Detroit Avenue,Lakewood,OH,True,True,,"It's a restaurant, but they're pretty chill. If you ask to use the restroom they'll likely let you.",41.485625,-81.8161947,2019-02-01T14:10:24.532Z,2019-02-01T14:10:24.556Z,0,0,US,False,47255,True
54980,Grover Cleveland Service Area,N/A,Sewaren,NJ,True,False,In between men and women’s ,Family bathroom,40.5520491,-74.2587568,2020-01-24T18:51:18.486Z,2020-04-14T21:00:25.908Z,0,1,US,True,54980,True
6165,Thwing Center,11111 Euclid Avenue,Cleveland,OH,True,True,"Adjacent to the Office of Faculty Development and the Cleveland Room, which are up the steps to ""Thwing West"" (immediately to the left of the street entrance). ADA ramp is about 100 feet further into the building on the same side.",Building is open to the public,41.5073561,-81.6082907,2014-07-23T16:10:09.169Z,2014-07-23T16:10:09.169Z,1,2,United States,False,6165,True
278,Cold Stone Creamery,3508 Connecticut Avenue NW,WASHINGTON,DC,True,True,towards the back,near cleveland park metro,38.935748,-77.058779,2014-02-02T20:49:25.798Z,2014-02-02T20:49:25.798Z,1,0,US,False,278,True
1148,Snuffy's Restaurant,244 Cleveland Ave S,St Paul,MN,False,False,"In the basement, have to go through the kithen and down stairs.","Single stall locking, not gendered - since it's beyond the kitchen, though, it's not probably not just a ""walk right in"".",44.9341115,-93.187277,2014-02-02T20:50:34.552Z,2014-02-02T20:50:34.552Z,1,0,US,False,1148,True
5005,Highland Grill,771 Cleveland Ave S,Saint Paul,MN,True,True,,,44.918234,-93.18779,2014-02-16T07:49:50.240Z,2014-02-16T07:50:51.356Z,1,1,,False,5005,True
16195,Cafe Caribe,54 Cleveland Street ,Wellington,Wellington,False,True,"At the back of the cafe, on the left. Is down a step.","This is a really small cafe, so it might feel a bit awkward to just pop in to use the toilet if there's not many customers. They people who run it and work there are really really sweet, though. ",-41.3050554,174.7639589,2015-03-05T05:16:03.600Z,2015-03-05T05:16:03.600Z,0,0,NZ,False,16195,True
17039,Punch Pizza,704 Cleveland Avenue South,Saint Paul,Minnesota,False,True,,,44.9202775,-93.1869395,2015-04-05T00:44:41.200Z,2015-04-05T00:44:41.200Z,0,1,US,False,17039,True
18522,Howe Sound Inn and Brewing Company,37801 Cleveland Ave,Squamish,British Columbia,True,False,,,49.695733,-123.15632,2015-08-30T02:49:27.557Z,2015-08-30T02:49:27.557Z,0,0,CA,False,18522,True
22783,Top Pot Donuts/Rudy's Barbershop,16095 Cleveland Street,Redmond,Washington,False,True,"Restrooms inside, between the two shops, accessed by hallway",Bathrooms large enough for disabled customers/have handle bars to help with standing but difficult to access through narrow hallway,47.6741091,-122.1266253,2016-06-13T05:33:14.084Z,2016-06-13T05:33:14.084Z,0,0,US,False,22783,True
23142,Westerville Community Center,350 N. Cleveland Avenue,Westerville,Ohio,True,True,"Pool area locker rooms. Turn left from the entrance, go down the hallway. Locker room entry is just past the desk where you pay for your pool pass.","Regular restrooms are gendered, but they have ""special needs"" locker rooms for multi-gender families, disabled people, or ""those with other special needs"" down the center (between the men's and women's locker rooms) which also have toilets. Only available if you have paid/have a pass to get into the pool area.",40.1356752,-82.9449169,2016-06-15T14:09:22.856Z,2016-06-15T14:09:22.856Z,0,1,US,False,23142,True
28245,Quixotic Coffee,769 Cleveland,St Paul,MN,True,True,"Way in the back, one stall",Paying customers only,44.918328,-93.1875866,2017-02-23T18:31:57.137Z,2017-02-23T18:31:57.137Z,0,1,US,False,28245,True
36500,Quixotic Coffee,769 Cleveland Ave S,St. Paul,MN,False,False,All the way in the back,"M-S 6:30am-8pm, Sunday 7am-6pm",44.918328,-93.1875866,2017-07-19T21:23:25.638Z,2017-07-19T21:23:25.638Z,0,1,US,False,36500,True
37003,Lowes,2100 w Cleveland avenue ,Madera,California ,True,False,"When leaving, left of the sliding doors labeled exit ",,36.9736556,-120.0822027,2017-08-16T00:42:20.863Z,2017-08-16T00:42:20.863Z,0,0,US,False,37003,True
37977,Katie's Diner,120 W Cleveland Ave,Guthrie,Oklahoma,True,True,,,35.8792556,-97.4262964,2017-10-01T16:24:56.440Z,2017-10-01T16:24:56.440Z,0,1,US,False,37977,True
38608,Starbucks,3407 Cleveland Ave NW,Canton,Ohio,True,True,"Corner of store, to the right of checkout line if you are facing it. ",,40.8364371,-81.3899665,2017-11-12T17:15:43.185Z,2020-04-14T21:19:02.838Z,0,0,US,False,38608,True
39207,Columbus College of Art and Design - Loann Crane Center for Design,112 Cleveland Avenue,Columbus,Ohio,False,False,"on the first floor, down the left hallway",,39.96595,-82.990063,2017-12-30T03:12:47.536Z,2017-12-30T03:12:47.536Z,0,2,US,False,39207,True
40206,Pasquale's Pizza & Pasta House,S Cleveland ave ,Westerville ,Ohio ,True,False,Just walk straight back ,You have to be eating there. ,40.1180509,-82.9486424,2018-03-01T23:45:04.988Z,2018-03-01T23:45:04.988Z,0,1,US,False,40206,True
41005,Janie Moore,5108 Cleveland Boulevard,Nampa,Idaho,True,True,"Not in front bathrooms, but back bathroom by the shoes and electronics. ",,43.6315915,-116.6472268,2018-04-19T05:41:36.477Z,2018-04-19T05:41:36.477Z,0,0,US,True,41005,True
41081,Roast House Coffee,423 E Cleveland Ave,Spokane ,WA,True,True,,"Great coffee, too. M-F 8-4; Sa 10 - 2",47.684648,-117.4038154,2018-04-25T02:27:49.704Z,2018-04-25T02:27:49.704Z,0,1,US,False,41081,True
41543,Orlando Sanford International Airport,1200 Red Cleveland Blvd,Sanford,Florida,True,True,family restroom next to baggage claim ,,28.7755261,-81.2435838,2018-05-28T00:22:57.098Z,2018-05-28T00:22:57.098Z,0,1,US,True,41543,True
44016,Homegrown / Molly Moon’s,7841 Leary Way NE,Redmond,WA,True,True,Between Homegrown and Molly Moon’s on Cleveland there is a black windowed door. Restrooms are through there. Also accessible through either eating establishment.,Two unisex self contained restrooms. Both are accessible. One has a changing table. (Try the ice cream!),47.6736136,-122.1234202,2018-09-13T23:15:20.968Z,2020-04-14T21:26:58.887Z,0,0,US,True,44016,True
45988,Safeway,13380 E Mary Ann Cleveland Way ,Vail,Arizona,True,True,"Front right corner, right next to Starbucks",,32.0500625,-110.7087079,2018-11-21T02:17:54.481Z,2019-02-12T06:31:24.852Z,0,0,US,False,45987,True
46614,Safeway,E Mary Ann Cleveland Way,Vail,Arizona,True,False,"In the front right of the store, right next to the Starbucks. ",,32.0522332,-110.7144879,2018-12-24T02:12:05.769Z,2018-12-24T02:12:05.868Z,0,1,US,True,46614,True
46677,Edison Mall Family Restroom,4125 Cleveland Ave,Fort Myers,Florida,True,False,It’s down the hall in between the stores Love Culture and Divine Lashes & More a.k.a. entrance E,,26.6015082,-81.8692164,2018-12-29T19:32:03.786Z,2018-12-29T19:32:04.339Z,34,3,US,True,46677,True
49122,Aldi,S. Cleveland Massilon Rd,Fairlawn,Ohio,True,False,,,41.1215947,-81.6378061,2019-04-14T00:27:43.580Z,2019-04-14T00:27:43.603Z,0,0,US,False,49122,True
50605,Dickens Street Public House ,2060 N Cleveland Avenue,Chicago ,Illinois,True,False,To the left of the bar,"No handrail, must be a paying customer ",41.9199689,-87.641573,2019-06-23T03:20:01.637Z,2019-06-23T03:20:01.743Z,0,0,US,False,50605,True
51020,Rite aid canton south,4042 Cleveland Ave SW,Canton,OH,True,False,Back of the store on the left,Restrooms open to anyone. Paying or not. Men's and women's both lock and have changing tables. Staff will not ask or question. ,40.7505898,-81.3738822,2019-07-13T23:32:03.816Z,2019-07-13T23:32:03.926Z,0,0,US,True,51020,True
2307,West Shore Unitarian Universalist Church,20401 Hilliard Boulevard,Cleveland,OH,True,True,There are three unisex/family bathrooms.  Enter from the parking lot entrance (east entrance).  The most commonly used by the public are directly forward through the rotunda.  Take the first hallway on your left that does not have a door.  Turn left again and there are two bathrooms right there.  There is a unisex bathroom to your right and all the way down the small hallway.,"This is a church and is open 8AM to 10PM Monday through Friday, most Saturdays during the day, and during the morning and afternoon on Sundays.The 2009-10 intern minister is/was genderqueer and the congregation is a welcoming congregation to the GLBT community.",41.46329,-81.874039,2014-02-02T20:52:17.617Z,2014-02-02T20:52:17.617Z,1,2,US,False,2307,True
2394,Chipotle,33599 Aurora Road,Cleveland,OH,False,False,"When you enter, you're in line, but if you go off to the right and bypass the line and the counter you'll be in the eating area.  Bathrooms are on the left wall if you're standing in the center of the room facing the same direction as the counter.","I don't think they'd really care if you just slid in to use the restroom, especially if it's busy.  Buy a drink if you're worried.",41.4244084,-81.5280085,2014-02-02T20:52:24.274Z,2014-02-02T20:52:24.274Z,1,0,US,False,2394,True
2395,Chipotle Mexican Restaurant,4015 Richmond Road,Cleveland,OH,False,False,It's to the left of the counter and the line when you come in.,"Open 11AM to 10 PM.If it's busy, no one will even notice if you come in to use the bathroom and leave.  Otherwise, just buy a drink.",41.4300404,-81.4943699,2014-02-02T20:52:24.389Z,2014-02-02T20:52:24.389Z,3,2,US,False,2395,True
4771,Phoenix Coffee,2287 Lee Road,Cleveland ,OH,True,True,On the side of the shop opposite the street. ,"The baristas there are some of the sweetest people you'll meet, I'd honestly be shocked if they told you off for using the bathroom without buying something. They won't care. They do make awesome coffee though. ",41.497376,-81.564896,2014-02-10T05:28:35.044Z,2014-02-10T05:28:35.044Z,1,2,USA,False,4771,True
4980,Louis Stokes V.A. Medical Center,10701 East Boulevard,"Cleveland, OH",Ohio,True,True,"There are both stall type and Unisex. Usually located along main hallways. 

This is a federal hospital run for military vets but it is public. There are restrooms on second floor across the new pedestrian bridge. Go back by the elevators and turn left-you'll see the signs. Ladies to the right, men to the left.","Here's what most non-veteran transgenders are missing-http://www.cristanwilliams.com/b/wp-content/uploads/2013/02/VHADirective2013.pdf

The V.A. has issued directives for its employees detailing 
how transgender vets are to be treated, respected and cared for. V.A. security isn't going to question your presence as long as you are respectful so use our facilities. Hugs.  
",41.5137191,-81.6138268,2014-02-15T16:21:54.762Z,2014-02-15T16:21:54.762Z,1,0,U.S.,False,4980,True
5173,Liquid Planet,12413 Cedar Rd,Cleveland,OH,True,True,"Back of the building, there are two gender neutral single stalls.","I can't say for sure whether or not you have to be a paying customer. Their sides are like a dollar though, so in the event that they play that card...",41.501285,-81.593665,2014-03-06T18:51:50.988Z,2014-03-06T18:51:50.988Z,1,0,United States,False,5173,True
6144,Phoenix Coffee,1793 Coventry Road,Cleveland Heights,OH,False,False,,,41.5107611,-81.5797729,2014-07-19T03:23:30.089Z,2014-07-19T03:23:30.089Z,1,1,United States,False,6144,True
6145,Algebra Tea House,2136 Murray Hill Road,Cleveland,Ohio,False,False,In the back,,41.505306,-81.599715,2014-07-19T03:25:28.132Z,2014-07-19T03:25:28.132Z,1,0,United States,False,6145,True
6166,Tinkham Veale University Center,11038 Bellflower Rd,Cleveland,OH,True,True,"Located in the part of the building closest to Bellflower Road (it's marked the ""Linsalata Entrance""), just past the gendered bathrooms","Building is open to the public (also, this restroom is conveniently located around the corner from Case Western Reserve University's LGBT Center!)",41.5085721,-81.6097942,2014-07-23T16:32:45.861Z,2014-07-23T16:32:45.861Z,1,2,United States,False,6166,True
6176,Wolstein Hall,11318 Bellflower Road,Cleveland,Ohio,True,True,"There is one gender inclusive restroom located on each of the building's three floors.  If entering the building from the main entrance, turn left to use the side stairwell.  All three restrooms are located along this stairwell.",CWRU associated,41.5106321,-81.6059017,2014-07-30T03:03:48.791Z,2014-07-30T03:03:48.791Z,1,0,United States,False,6176,True
17023,Sears Building,2083 Martin Luther King Jr. Drive,Cleveland,Ohio,True,True,"From the main entrance on the quad, located in the hallway behind the cafeteria to the right of the entrance (directly before the ramp leading to Wickenden Building, and next to the elevator).",,41.5027602,-81.6082156,2015-04-03T21:15:42.488Z,2015-04-03T21:15:42.488Z,0,1,US,False,17023,True
17342,Liquid Planet,11002 Clifton Blvd,Cleveland,OH,True,True,One floor. 2 gender neutral bathrooms,,41.4864552,-81.7610512,2015-05-04T16:22:11.220Z,2015-05-04T16:22:11.220Z,0,1,US,False,17342,True
18789,Tabletop Board Game Café,1810 W 25th St,Cleveland,OH,True,True,,,41.486324,-81.7055029,2015-09-20T01:18:46.293Z,2015-09-20T01:18:46.293Z,0,0,US,False,18789,True
19657,Superelectric pinball parlor,Corner of Detroit and W. 65th,Cleveland,Ohio,False,True,,,41.4840468,-81.7302928,2015-12-20T20:19:54.460Z,2015-12-20T20:19:54.460Z,0,0,US,False,19657,True
19809,Tabletop Board Game Cafe,1810 W. 25TH,Cleveland,Ohio,True,True,Past the counter on your left,,41.486324,-81.7055029,2016-01-12T22:31:09.861Z,2016-01-12T22:31:09.861Z,0,1,US,False,19809,True
19836,Lilly's Handmade Chocolates ,761 Starkweather Ave,Cleveland,OH,True,True,,,41.4773645,-81.6823741,2016-01-16T21:12:45.755Z,2016-01-16T21:12:45.755Z,0,0,US,False,19836,True
19896,Platform Beer Co.,4125 Lorain Ave,Cleveland,OH,False,True,,,41.4798638,-81.7139787,2016-01-22T02:34:45.168Z,2016-01-22T02:34:45.168Z,0,0,US,False,19896,True
20129,Tabletop Board Game Cafe,1810 W 25th St,Cleveland,OH,False,True,Either single-stall bathroom in back of cafe,Marked gender neutral,41.486324,-81.7055029,2016-02-01T18:02:28.081Z,2016-02-01T18:02:28.081Z,0,2,US,False,20129,True
20130,Liquid Planet Smoothies,11002 Clifton Blvd,Cleveland,OH,False,True,"Come in back door (from parking lot) to use bathrooms without needing to pass counter (not necessary, but useful)",Two gender neutral single-stall bathrooms. Employees don't care,41.4864384,-81.7610637,2016-02-01T18:06:51.276Z,2016-02-01T18:06:51.276Z,0,1,US,False,20130,True
20131,Target,3100 W 117th St,Cleveland,OH,False,True,,,41.468446,-81.7717937,2016-02-01T18:09:58.992Z,2016-02-01T18:09:58.992Z,0,1,US,False,20131,True
22192,Ocoee Middle School,2212-2256 N Ocoee St,Cleveland,Tennessee,False,False,There are two sets of gendered single stall bathrooms. One is in the music hall and the other near the Tech lab.,"Not exactly a Trans positive place, but no one makes a if deal out of the single stall restrooms.",35.1741918,-84.8686029,2016-05-20T19:06:22.544Z,2016-05-20T19:06:22.544Z,0,0,US,False,22192,True
23152,Six Shooter Coffee,16021 Waterloo Road,Cleveland,OH,False,True,,,41.57135,-81.568506,2016-06-15T16:16:42.899Z,2016-06-15T16:16:42.899Z,0,0,US,False,23152,True
23230,Dewey's Coffee House,13201 Shaker Square,Cleveland,OH,True,True,Head back and to the right into the little hallway,"There are no signs about it, but they'd probably prefer you be a customer.",41.4846805,-81.5899745,2016-06-16T01:17:28.141Z,2016-06-16T01:17:28.141Z,0,0,US,False,23230,True
23603,My Friends Restaurant,11616 Detroit Ave,Cleveland ,Ohio ,True,False,,,41.4835715,-81.7679111,2016-06-26T04:03:29.428Z,2016-06-26T04:03:29.428Z,0,0,US,False,23603,True
24714,Mitchell's Ice Cream,1867 W 25th St,Cleveland,Ohio,True,False,To the right down the hallway in the back.,No purchase required to use restrooms. Restrooms are single-person rooms.,41.4858619,-81.7044899,2016-08-14T23:56:52.792Z,2016-08-14T23:56:52.792Z,0,0,US,False,24714,True
24981,Picadilly Artisan Creamery,11607 Euclid Ave,Cleveland,Ohio,True,True,"In the back, to the left",,41.5109019,-81.6033302,2016-08-26T01:06:11.158Z,2016-08-26T01:06:11.158Z,0,1,US,False,24981,True
25417,Sweet Moses,6800 Detroit Ave,Cleveland,Ohio,True,False,,"Two, single person gendered bathrooms; I've never had a problem here, and my friends and I come regularly. ",41.483833,-81.7318977,2016-09-09T06:09:15.639Z,2016-09-09T06:09:15.639Z,0,0,US,False,25417,True
25470,Tinkham Veale University Center,11038 Bellflower Rd,Cleveland,OH,True,True,"One single stall gender neutral restaurant on each of the two floors. The building is essentially a long hallway, and the restrooms are fairly easy to find.",,41.5080984,-81.6087304,2016-09-12T17:39:14.350Z,2020-04-14T21:14:36.543Z,0,1,US,False,25470,True
25876,Starbucks,12405 cedar road,Cleveland heights,Ohio,True,True,,,41.5013002,-81.5940686,2016-10-20T18:48:51.262Z,2016-10-20T18:48:51.262Z,0,0,US,False,25876,True
25880,Piccadilly Artisan Yogurt,1767 Coventry Rd,Cleveland Heights,OH,True,True,"In the back, to the right.",For customers only,41.5114958,-81.5797939,2016-10-21T01:59:05.640Z,2016-10-21T01:59:05.640Z,0,1,US,False,25880,True
26388,Kelvin Smith Library,10900 Euclid Ave,Cleveland,OH,False,True,"First floor, behind the elevators",CWRU ID or other photo ID required to enter the building.,41.5074022,-81.6083276,2016-11-11T23:06:40.629Z,2016-11-11T23:06:40.629Z,0,1,US,False,26388,True
26998,Clark Hall,11130 Bellflower Road,Cleveland,OH,False,False,"One, located on the 3rd floor",,41.5089519,-81.6074953,2016-12-06T21:14:01.571Z,2016-12-06T21:14:01.571Z,0,0,US,False,26998,True
26999,Guilford House,11112 Bellflower Road,Cleveland,OH,False,True,"One, located in the basement",,41.5085984,-81.6081984,2016-12-06T21:23:52.547Z,2016-12-06T21:23:52.547Z,0,0,US,False,26999,True
27000,Glaser House,10900 Euclid Ave,Cleveland,OH,False,True,"One, located on the 1st floor",Available to CWRU students living in the Residential halls.,41.5074022,-81.6083276,2016-12-06T21:34:09.494Z,2016-12-06T21:34:09.494Z,0,0,US,False,27000,True
27001,Haydn Hall,11119 Bellflower Road,Cleveland,OH,False,True,"One, located in the basement
One, located on the 1st floor in the music library",,41.5099586,-81.6080379,2016-12-06T21:39:17.135Z,2016-12-06T21:39:17.135Z,0,0,US,False,27001,True
27002,Mandel School of Applied Social Sciences,11235 Bellflower Road,Cleveland,OH,False,True,"Three, located on floors 1, 2, and 3 of the west wing Mandel building",,41.510681,-81.6072471,2016-12-06T21:41:22.262Z,2016-12-06T21:41:22.262Z,0,0,US,False,27002,True
27003,Alumni House,11310 Juniper Road,Cleveland,OH,False,True,"Two to each of the three floors
One, located in the basement ",,41.511702,-81.6069359,2016-12-06T21:42:50.912Z,2016-12-06T21:42:50.912Z,0,0,US,False,27003,True
27004,Bellflower Hall,11427 Bellflower Road,Cleveland,OH,False,True,"One, located on the 1st floor near the exit stairway
One, located on the 2nd floor near the exit stairway",,41.5119518,-81.6052548,2016-12-06T21:44:26.194Z,2016-12-06T21:44:26.194Z,0,0,US,False,27004,True
27005,Thwing Center,11111 Euclid Ave,Cleveland,OH,False,True,"Two, located on the 1st floor of Thwing West",,41.5074022,-81.6083276,2016-12-06T21:47:11.548Z,2016-12-06T21:47:11.548Z,0,0,US,False,27005,True
27006,Storrs House,10900 Euclid Ave,Cleveland,OH,False,True,"One, located on the 1st floor",Available to CWRU students living in the North Residential housing.,41.5074022,-81.6083276,2016-12-06T21:59:45.704Z,2016-12-06T21:59:45.704Z,0,0,US,False,27006,True
27007,Wolstein Hall,11318 Bellflower Road,Cleveland,OH,False,True,"One, located on the 1st floor at the side stairway
One, located on the 2nd floor at the side stairway
One, located on the 3rd floor at the side stairway",,41.5106532,-81.6059505,2016-12-06T22:01:52.823Z,2016-12-06T22:01:52.823Z,0,0,US,False,27007,True
27013,Tinkham Veale Univeristy Center,11038 Bellflower Rd,Cleveland,Ohio,True,True,Two gender-neutral bathrooms on 1st and 2nd floors at the Bellflower end of the building.,Open to the public.,41.508117,-81.6086729,2016-12-07T15:35:02.771Z,2016-12-07T15:35:02.771Z,0,0,US,False,27013,True
27014,A.W. Smith Building,2102 Adelbert Rd,Cleveland,Ohio,True,True,One gender-neutral bathroom on the 3rd floor by room 329.,Doors to building switch to card access only at 7pm and reopen to public at 8am.,41.5029443,-81.6069032,2016-12-07T15:41:20.814Z,2016-12-07T15:41:20.814Z,0,1,US,False,27014,True
27015,Art Studio,2215 Adelbert Rd,Cleveland,Ohio,True,True,One gender-neutral bathroom on the 1st floor.,Doors to building switch to card access only at 7pm and reopen to public at 8am.,41.5018812,-81.6030622,2016-12-07T15:44:08.406Z,2016-12-07T15:44:08.406Z,0,0,US,False,27015,True
27016,Clark Hall,11130 Bellflower Rd,Cleveland,Ohio,True,True,One gender-neutral bathroom on the 3rd floor.,Doors to building switch to card access only at 7pm and reopen to public at 8am.,41.5089519,-81.6074953,2016-12-07T15:47:23.414Z,2016-12-07T15:47:23.414Z,0,0,US,False,27016,True
27017,Church of the Covenant,11205 Euclid Ave,Cleveland,Ohio,True,True,"Three gender-neutral bathrooms:
-One on the 1st floor by the cafeteria.
-Two on the 2nd floor by the lounge and at the sanctuary entrance.",Doors to building switch to card access only at 7pm and reopen to public at 8am.,41.5083754,-81.6072403,2016-12-07T15:48:27.217Z,2016-12-07T15:48:27.217Z,0,0,US,False,27017,True
27018,Haydn Hall,11118 Bellflower Rd,Cleveland,Ohio,True,True,"Two gender-neutral bathrooms:
-One in the basement at the end of the hallway (not ADA accessible).
-One on the 1st floor in the main part of the library.",Doors to building switch to card access only at 7pm and reopen to public at 8am.,41.5086017,-81.6076548,2016-12-07T15:57:21.472Z,2016-12-07T15:57:21.472Z,0,0,US,False,27018,True
27019,Mandel Center for Nonprofit Organizations,11402 Bellflower Rd.,Cleveland,Ohio,True,False,One gender-neutral bathroom on the 2nd floor by the large staircase.,Doors to building switch to card access only at 7pm and reopen to public at 8am.,41.5109629,-81.605498,2016-12-07T16:00:50.398Z,2016-12-07T16:00:50.398Z,0,0,US,False,27019,True
27020,Mandel School for Applied Social Sciences,11235 Bellflower Rd,Cleveland,Ohio,True,True,Two gender-neutral bathrooms on the 1st floor at the end of the left hallway.,Doors to building switch to card access only at 7pm and reopen to public at 8am.,41.510681,-81.6072471,2016-12-07T16:02:13.518Z,2016-12-07T16:02:13.518Z,0,0,US,False,27020,True
27021,Rockefeller Building,2076 Adelbert Rd,Cleveland,Ohio,True,True,One gender-neutral bathroom on the 4th floor by the drinking fountains.,Doors to building switch to card access only at 7pm and reopen to public at 8am.,41.5035829,-81.6077597,2016-12-07T16:03:09.740Z,2016-12-07T16:03:09.740Z,0,0,US,False,27021,True
27022,Sears Building,2083 Martin Luther King Jr Dr,Cleveland,Ohio,True,False,"Three gender-neutral bathrooms:
-One on the 3rd floor next to Grab-It.
-Two on the 2nd floor next to UCS.",Doors to building switch to card access only at 7pm and reopen to public at 8am.,41.5027602,-81.6082156,2016-12-07T16:04:05.117Z,2016-12-07T16:04:05.117Z,0,0,US,False,27022,True
27023,Stephanie Tubbs Jones Residence Hall,1576 E. 115th St.,Cleveland,Ohio,True,True,Two gender-neutral bathrooms on the 1st floor by the main entrance.,Doors to building switch to card access only at 7pm and reopen to public at 8am.,41.5151719,-81.6047337,2016-12-07T16:09:15.971Z,2016-12-07T16:09:15.971Z,0,0,US,False,27023,True
27024,Thwing Center,10900 Euclid Ave,Cleveland,Ohio,True,False,Two gender-neutral bathrooms on the 1st floor of the Bellflower House.,Doors to building switch to card access only at 7pm and reopen to public at 8am.,41.5074022,-81.6083276,2016-12-07T16:11:35.772Z,2016-12-07T16:11:35.772Z,0,0,US,False,27024,True
27025,Tomlinson Hall,109000 Euclid Ave,Cleveland,Ohio,True,True,One gender-neutral bathroom on the 1st floor to the left of the main entrance.,Doors to building switch to card access only at 7pm and reopen to public at 8am.,41.5040341,-81.6096276,2016-12-07T16:15:31.360Z,2016-12-07T16:15:31.360Z,0,0,US,False,27025,True
27026,Veale Athletic Center,11038 Bellflower Rd,Cleveland,Ohio,True,False,"Three gender-neutral bathrooms in the basement:
-Two in the hallway by the Issue Room/Desk.
-One in the weight room.",Doors to building switch to card access only at 7pm and reopen to public at 8am.,41.508117,-81.6086729,2016-12-07T16:17:18.459Z,2016-12-07T16:17:18.459Z,0,0,US,False,27026,True
27027,Alumni House,11310 Juniper Rd,Cleveland,Ohio,True,False,"Seven single stall bathrooms with gendered signs:
-One in the basement (not ADA accessible).
-Two on the 1st floor.
-Two on the 2nd floor (not ADA accessible).
-Two on the 3rd floor (not ADA accessible).",Doors to building switch to card access only at 7pm and reopen to public at 8am.,41.511702,-81.6069359,2016-12-07T16:21:13.154Z,2016-12-07T16:21:13.154Z,0,0,US,False,27027,True
27028,Amasa Stone Chapel,10940 Euclid Ave,Cleveland,Ohio,True,False,One single stall bathroom with gendered sign at the front right side of the sanctuary.,Doors to building switch to card access only at 7pm and reopen to public at 8am.,41.5049276,-81.609064,2016-12-07T16:22:33.573Z,2016-12-07T16:22:33.573Z,0,0,US,False,27028,True
27029,Bellflower House,11427 Bellflower Rd,Cleveland,Ohio,True,False,"Three single stall bathrooms with gendered signs:
-One on the 1st floor.
-Two on the 2nd floor (not ADA accessible).",Doors to building switch to card access only at 7pm and reopen to public at 8am.,41.5119518,-81.6052548,2016-12-07T16:24:42.265Z,2016-12-07T16:24:42.265Z,0,0,US,False,27029,True
27030,Clarke Tower,1596 E 115th St,Cleveland,Ohio,True,False,Two single stall bathrooms with gendered signs on 1st floor.,Doors to building switch to card access only at 7pm and reopen to public at 8am.,41.5145416,-81.6055984,2016-12-07T16:25:48.837Z,2016-12-07T16:25:48.837Z,0,0,US,False,27030,True
27031,Cutler House,1616 E 115th St,Cleveland,Ohio,True,False,One single stall bathroom with gendered sign on 1st floor.,Doors to building switch to card access only at 7pm and reopen to public at 8am.,41.5142142,-81.6052639,2016-12-07T16:26:50.121Z,2016-12-07T16:26:50.121Z,0,0,US,False,27031,True
27032,CWRU Barnes and Noble,11451 Euclid Ave,Cleveland,Ohio,True,False,Two single stall bathrooms with gendered signs in Dunkin' Donuts.,Doors to building switch to card access only at 7pm and reopen to public at 8am.,41.5099915,-81.6043539,2016-12-07T16:27:49.509Z,2016-12-07T16:27:49.509Z,0,0,US,False,27032,True
27033,Glaser House,11900 Carlton Rd,Cleveland,Ohio,True,False,One single stall bathroom with gendered sign on 1st floor.,Doors to building switch to card access only at 7pm and reopen to public at 8am.,41.5004736,-81.6005772,2016-12-07T16:28:56.517Z,2016-12-07T16:28:56.517Z,0,0,US,False,27033,True
27034,Hitchcock House,1626 E 115th St,Cleveland,Ohio,True,False,One single stall bathroom with gendered sign on 1st floor.,Doors to building switch to card access only at 7pm and reopen to public at 8am.,41.513924,-81.6049966,2016-12-07T16:29:45.099Z,2016-12-07T16:29:45.099Z,0,0,US,False,27034,True
27035,Peter B. Lewis Building,11119 Bellflower Rd,Cleveland,Ohio,True,False,Multiple single stall bathrooms with gendered signs on the 5th floor.,Doors to building switch to card access only at 7pm and reopen to public at 8am.,41.5099586,-81.6080379,2016-12-07T16:34:01.766Z,2016-12-07T16:34:01.766Z,0,0,US,False,27035,True
27036,Severance Hall,11001 Euclid Ave,Cleveland,Ohio,True,False,One single stall bathroom with gendered sign on 1st floor to the left of the Euclid Ave. entrance.,Open to the public from 8am to usually 8pm.,41.5063477,-81.6093361,2016-12-07T16:35:22.315Z,2016-12-07T16:35:22.315Z,0,0,US,False,27036,True
28203,Generic.Gallery,"3901 Lakeside Ave., Ste. 104",Cleveland,Ohio,True,True,Our public restroom is located in a secure hallway on the first floor next to our Gallery.,Restroom is available during open studio and gallery hours which varies per exhibit. Our gallery/open studio is LGBTQIA+ friendly and genderqueer owned & operated. ,41.5184178,-81.6670947,2017-02-23T03:49:12.609Z,2017-02-23T03:49:12.609Z,0,2,US,False,28203,True
28205,Coquette Patisserie,11607 Euclid Ave,Cleveland,OH,True,True,Back of the cafe,,41.5109019,-81.6033302,2017-02-23T04:04:25.359Z,2017-02-23T04:04:25.359Z,0,0,US,False,28205,True
28255,The BottleHouse Brewing Company and Meadery,2050 Lee Road,Cleveland Heights,Ohio,True,True,Bathroom is located the back and right of the bar. ,"The BottleHouse is a safe space for all members of the LGBTQIA+ community and has a single stall, all gender bathroom. If you feel unsafe, please inform staff and they will help.",41.503728,-81.5658831,2017-02-23T19:15:58.286Z,2017-02-23T19:15:58.286Z,0,1,US,False,28255,True
28341,Target,Ben More,Cleveland,TN,True,False,,,35.1779862,-84.8671232,2017-02-24T02:08:35.175Z,2020-04-14T21:15:20.997Z,0,0,US,False,28341,True
28342,Target,4570 Frontage Rd NW,Cleveland,Tennessee ,True,False,,,35.216779,-84.8656639,2017-02-24T02:12:21.408Z,2017-02-24T02:12:21.408Z,0,0,US,False,28342,True
28620,Starbucks,3093 Mayfield Rd,Cleveland,Ohio,True,False,"Keep to the right of the counter, then follow the righthand shelves back around the corner. ",They don't seem to mind people just coming in for the bathroom,41.5161736,-81.5689851,2017-02-24T15:55:38.798Z,2017-02-24T15:55:38.798Z,0,0,US,False,28620,True
28651,Dewey's Coffee House,13201 Shaker Square,Cleveland,Ohio,True,True,,"Probably have to be a paying customer, but there are small very cheap food items",41.4846805,-81.5899745,2017-02-24T16:37:49.703Z,2017-02-24T16:37:49.703Z,0,0,US,False,28651,True
28989,Piccadilly Artisan Creamery, 11607 Euclid Ave,Cleveland,Ohio,False,False,It's in the back. Just ask where the bathroom is and there's a sign. ,,41.5109019,-81.6033302,2017-02-24T23:35:24.009Z,2017-02-24T23:35:24.009Z,0,0,US,False,28989,True
29703,CWRU Mandel School of Applied Social Sciences,11235 Bellflower Rd,Cleveland ,OH ,True,True,"Third floor bathrooms near the elevators are multi-stall with privacy details (i.e. no gaps in the door) and are entirely gender-neutral. 
There are gender-neutral private (single) bathrooms at the end of the faculty wing hall on each of the 3 floors (to the left if you are facing the front desk).",Open to members of CWRU and any public using the building for events or work. The building is access-card only outside of normal business hours (8-6 pm M-F).,41.510718,-81.607072,2017-02-25T18:52:09.393Z,2017-02-25T18:52:09.393Z,0,0,US,False,29703,True
29709,Tinkham Veale University Center,11038 Bellflower Rd ,Cleveland ,OH,True,False,"There is one gender-neutral bathroom (marked as such) on each floor next to the gendered, multi-stall bathrooms.",These are located in a student center that is open to the public between 7 AM and 11 PM daily. ,41.508117,-81.6086729,2017-02-25T18:58:32.055Z,2017-02-25T18:58:32.055Z,0,0,US,False,29709,True
29808,Rae-Ann Westpark,4650 Rocky River Drive,Cleveland,Ohio,False,False,Two single stall restrooms in the main lobby/office.,This is a nursing home but the office staff will usually allow people to use the office restrooms. Ring door buzzer if building doors are locked.,41.4287174,-81.8265559,2017-02-25T20:20:51.509Z,2017-02-25T20:20:51.509Z,0,0,US,False,29808,True
29812,Rae-Ann Westpark,4650 Rocky River Drive,Cleveland,Ohio,False,False,Two gendered single stall restrooms in the main lobby/office.,This is a nursing home but the office staff will usually allow people to use the office restrooms. Ring door buzzer if building doors are locked.,41.4287174,-81.8265559,2017-02-25T20:23:06.946Z,2017-02-25T20:23:06.946Z,0,0,US,False,29812,True
29890,Phoenix Coffee,3000 Bridge Ave,Cleveland,OH,False,False,Down the stairs to the left,Must go through cafe,41.4843304,-81.7088484,2017-02-25T21:28:21.370Z,2017-02-25T21:28:21.370Z,0,4,US,False,29890,True
30524,Superior Building,815 superior ave E,Cleveland,Oh,True,False,"On 1st floor, closer to Rockwell road entrance",Building doors open 7am-6pm EST,41.5023763,-81.6894022,2017-02-26T16:16:34.365Z,2020-04-14T21:17:03.790Z,0,0,US,False,30524,True
31274,Panera Bread,11490 Euclid Ave. ,Cleveland,Ohio,True,False,Both floors,,41.509547,-81.603576,2017-02-27T09:13:21.221Z,2017-02-27T09:13:21.221Z,0,1,US,False,31274,True
31498,Toast,1365 W 65th St,Cleveland,OH,True,True,"all the way in the back on the left, past the kitchens",,41.4849988,-81.7300085,2017-02-27T18:10:43.143Z,2017-02-27T18:10:43.143Z,0,1,US,False,31498,True
34736,Gypsy Bean and Baking Company,6425 Detroit Ave. 44102,Cleveland,OH,True,True,Its kind of around the corner from the register. The barista can show you if you ask.,,41.4841024,-81.73007,2017-05-02T00:40:41.236Z,2017-05-02T00:40:41.236Z,0,0,US,False,34736,True
35373,Happy Dog at the Euclid Tavern,11625 Euclid Ave.,Cleveland,OH,True,False,Between the main restaurant area and the game room in back. ,I forgot to check if there was a changing table,41.5112497,-81.6028087,2017-05-29T09:31:42.790Z,2017-05-29T09:31:42.790Z,0,0,US,False,35373,True
35601,Superelectric Pinball Parlor,6500 Detroit Avenue,Cleveland,OH,False,True,"Single, ungendered bathroom in the back corner ",,41.4842367,-81.7304346,2017-06-08T15:16:05.199Z,2017-06-08T15:16:05.199Z,0,0,US,False,35601,True
35703,Tabletop Board Game Cafe,1810 W. 25th St. ,Cleveland ,Ohio,True,False,,You have to be a paying customer....but play a few board games and have fun.,41.4863268,-81.7055043,2017-06-12T10:04:02.405Z,2017-06-12T10:04:02.405Z,0,0,US,False,35703,True
37240,Coquette,11607 Euclid Ave,Cleveland,OH,False,True,Back hallway,,41.5108598,-81.603307,2017-08-27T16:58:37.436Z,2017-08-27T16:58:37.436Z,0,1,US,False,37240,True
37399,Chapati,11440 Euclid Ave,Cleveland,OH,False,True,In the back by their patio,,41.5096062,-81.6042116,2017-09-01T22:25:08.889Z,2017-09-01T22:25:08.889Z,0,0,US,False,37399,True
37623,CLE Urban Winery,2180 Lee Rd,Cleveland Heights,OH,False,False,,,41.5002436,-81.5657519,2017-09-10T01:38:56.287Z,2017-09-10T01:38:56.287Z,0,0,,False,37623,True
42826,Tabletop board game cafe,1810 w. 25th st,Cleveland,Oh,True,True,,Very friendly place,41.4863121,-81.7054833,2018-08-07T05:39:13.836Z,2018-08-07T05:39:13.836Z,0,0,US,False,42826,True
43810,Caesars head visitor center,8155 geer hwy,Cleveland,Sc,True,True,Inside the visitor center in back hallway in vending area.  No charge to enter park.  Open 10am-5pm. 365 days a year,,35.105859,-82.626111,2018-09-12T02:09:24.764Z,2018-09-12T02:09:24.764Z,0,0,US,True,43810,True
43811,Caesars head visitor center,8155 geer hwy,Cleveland,Sc,True,True,In back right hallway in visitor center.  Open 10am to 5pm 365 days a year.  No charge to enter park,,35.105859,-82.626111,2018-09-12T02:11:10.520Z,2018-09-12T02:11:10.520Z,0,0,US,True,43811,True
44218,Butcher and Brewer,Easy 4th ,Cleveland ,Ohio,False,False,Downstairs. Each toilet/urinal is single stall. Communal sink area. ,,41.4983044,-81.6899191,2018-09-16T05:16:38.055Z,2020-04-14T21:27:11.912Z,0,0,US,False,44218,True
44294,ProShow Sound,1616 St Clair Ave NE,Cleveland,Ohio,True,True,Buzzer on front door,,41.5068016,-81.6838201,2018-09-16T23:50:58.306Z,2020-04-14T21:27:31.864Z,0,0,US,False,44294,True
44404,Rising Star Coffee,2187 murray hill road,Cleveland,OH,True,True,,Gendered but sign says to use whichever you feel most comfortable using.,41.5039739,-81.6004553,2018-09-19T01:34:10.804Z,2020-04-14T21:27:56.084Z,0,0,US,False,44404,True
44405,Vero Pizza Napoletana,12421,Cleveland heights,OH,True,True,,,41.5200518,-81.556235,2018-09-19T01:36:44.555Z,2018-09-19T01:36:44.555Z,0,0,US,False,44405,True
44628,Prosperity Social Club,1109 Starkweather Ave,Cleveland,OH,True,False,,,41.477068,-81.689789,2018-09-24T14:57:13.125Z,2020-04-14T21:29:20.789Z,0,0,US,False,44628,True
44882,ProShow Sound,1616 St. Clair Ave NE,Cleveland,Ohio,True,True,,The “changing table” is a very large bathroom counter,41.5070186695471,-81.6837521922604,2018-10-04T16:34:42.353Z,2018-10-04T16:34:42.353Z,0,0,US,True,44882,True
45554,John Carroll University Library ,1 North Park Boulevard,Cleveland ,Ohio,True,False,"The library is the building in between the big science center and the clock tower. The restroom is on the first floor. Go to the left of the information desk, then all the way to the back wall (through the stacks). There’s 2 single stall bathrooms on the back wall. One is gender neutral, and the other is labeled “male”. ","You can’t park by the building if you aren’t a student, so park in visitor parking and walk/roll from there. You need a student ID after 9 pm",41.4913700035989,-81.529411662564,2018-10-31T23:35:21.210Z,2018-10-31T23:35:21.210Z,0,0,US,False,45554,True
47187,Stone Oven Bakery Cafe,Lee Rd,Cleveland Heights ,OH,True,False,Near back entrance by bulletin board,"There is a gendered bathroom and a unisex one. Both are single seat restrooms, only difference is that one has a urinal AND toilet. ",41.4991596,-81.565304,2019-01-30T18:53:50.192Z,2019-01-30T18:53:50.241Z,0,0,US,False,47187,True
47188,Mandel School of Applied Social Sciences,Bellflower Rd,Cleveland,OH,True,True,"Third floor of the MSASS building, by elevator",Doors are locked at night for students only. There is a nursing/changing table space off of the restroom to the right. Multiple stalls but designated that anyone can use the restroom.,41.5099534,-81.6074051,2019-01-30T18:56:32.228Z,2019-01-30T18:56:32.334Z,0,0,US,True,47188,True
47194,Lucky's Cafe,777 Starkweather Ave,Cleveland,Ohio,False,True,Bathroom is toward the back of the restaurant on the right. ,,41.4773709,-81.6830501,2019-01-31T15:14:30.210Z,2019-01-31T15:14:30.332Z,0,0,US,False,47194,True
47813,On the Rise Artisan Breads,3471 Fairmount Blvd. ,Cleveland Heights ,OH,True,True,"On the right pass the coffee station, then down the hall on the left. ",,41.4867294,-81.5550691,2019-03-01T23:46:33.359Z,2019-03-01T23:46:33.464Z,0,1,US,False,47813,True
48201,Imperial Garden,Ocoee Crossing NW,Cleveland,Tennessee,False,False,"In the back, behind a small divider, beside the waiter's station. ","Staff never pays close attention to who goes in the bathroom, they never really ask. You can use the restroom if you are eating in or if you are ordering/picking up a to-go order. ",35.1932647,-84.853701,2019-03-17T15:51:53.495Z,2019-03-17T15:51:53.521Z,0,0,US,False,48201,True
50724,Mitchell's Ice Cream,11444 Euclid Avenue,Cleveland ,OH,True,True,Located in the back of the shop. Both of them are marked 'all gender restroom',You use it without purchasing anything.,41.50956,-81.6039513,2019-06-28T00:30:10.072Z,2019-06-28T00:30:10.103Z,0,0,US,False,50724,True
51158,University Heights Public Library,13866 Cedar Rd,Cleveland ,Ohio,True,False,"Restrooms are easily accessible via stairs or the elevator. They are in the basement level if the library near their conference rooms, media rooms, and youth facility. There are two separate single-occupant restrooms available.","Library staff is VERY LGBTQIA+ friendly. If you need assistance, they will gladly help you. ",41.5010767,-81.5410044,2019-07-19T21:29:09.222Z,2019-07-19T21:29:09.269Z,0,1,US,True,51158,True
51412,Metropolitan Coffee,4744 Broadview Rd.,Cleveland,OH,True,True,,,41.427183,-81.6972935,2019-07-31T14:01:51.276Z,2019-07-31T14:01:51.387Z,0,2,US,False,51412,True
52107,Signature FBO,1571 North Marginal Rd,Cleveland,Ohio,True,True,To the right of main lobby parking lot entrance or to the left main lobby ramp entrance ,Burke Lakeftont Airport Gate 4,41.5120272,-81.6872096,2019-08-22T11:46:33.413Z,2019-08-22T11:46:33.552Z,0,0,US,False,52107,True
52440,Veale Athletic Center,2158 Adelbert Road,Cleveland ,Ohio,True,True,Enter main entrance through first floor. Past entrance to think[box].,Has 5 lockers and a shower that is wheelchair accessible. ,41.5021734,-81.604849,2019-09-09T17:03:00.680Z,2019-09-09T17:03:00.811Z,0,0,US,False,52440,True
52778,Tinkham Veale University Center,11038 Bellflower Rd,Cleveland,Ohio,True,True,On the second floor. Enter by the linsalata entrance and go up the stairs or walk through the building and take the elevator past the food court. Bathroom is just around the corner from the Greek life office and the women’s center,Open to the public,41.5080984,-81.6087304,2019-09-16T03:02:26.975Z,2019-09-16T03:02:27.087Z,0,1,US,False,52778,True
52779,Kelvin Smith Library,11055 Euclid Ave,Cleveland ,Ohio,True,True,"On the first floor, behind the gendered bathrooms near the bookshelves (there is a big blue sign)",Need a photo ID to enter the library,41.5073567,-81.6098145,2019-09-16T03:04:37.442Z,2019-09-16T03:04:37.543Z,0,1,US,False,52779,True
54133,LGBTQ+ Community Center,6705 Detroit Avenue,Cleveland,Ohio,True,True,1st floor near elevator.,,41.4835146,-81.7315008,2019-11-23T16:16:57.193Z,2020-04-14T21:02:59.431Z,0,2,US,True,54133,True
54588,Indian Flame,11607 Euclid Ave,Cleveland,Ohio,True,True,"On the other side of the bar area, go through the doors labelled ""restrooms"", and take a right. There will be two restrooms on the right-hand side.",,41.5109257,-81.6033777,2019-12-29T23:40:26.002Z,2020-04-14T21:06:24.601Z,0,0,US,False,54588,True
55566,Care Alliance,2916 Central Ave,Cleveland,OH,True,False,Second floor,,41.4966177,-81.6667288,2020-02-18T14:59:08.911Z,2020-04-14T21:07:31.671Z,0,0,US,True,55566,True
56910,LGBTQ+ Community Center,6705 Detroit Avenue,Cleveland,Ohio,True,True,Location between Pioneer Bank & Love Threading buildings. 1st floor turn left then just pass the elevator there are two All Gender & Accessible Restrooms w/Changing tables.,,41.4835146,-81.7315008,2020-12-03T16:27:50.173Z,2020-12-03T16:27:50.239Z,0,1,US,True,56910,True
17382,Starters,"1-2 Middlesbrough Leisure Park, Marton Road",Middlesbrough,Cleveland,True,True,At the back of the restaurant on the left hand side.,"Possibly 'for customers only' but there's a bar, so you could always order a coke or some water if you're nervous of just coming in off the street.",54.5762672,-1.22784,2015-05-07T17:47:04.088Z,2020-04-14T21:11:05.733Z,0,1,GB,False,17382,True
17388,Starters,"1-2 Middlesbrough Leisure Park, Marton Road",Middlesbrough,Cleveland,True,True,"At the back of the restaurant, to the left of the bar.",,54.5762672,-1.22784,2015-05-08T08:07:29.232Z,2020-04-14T21:11:06.416Z,0,1,GB,False,17388,True
17440,Starters Resraurant,"1-2 Middlesbrough Leisure Park, Marton Road",Middlesbrough,Cleveland,True,False,"At the back of the restaurant, to the left of the bar.",,54.5762672,-1.22784,2015-05-13T21:34:14.826Z,2020-04-14T21:11:13.475Z,0,2,GB,False,17440,True
18675,Starters,"1-2 Middlesbrough Leisure Park, Morton Road",Middlesbrough,Cleveland,True,True,Behind the bar at the back of the restaurant.,"Technically only for paying customers, but there's a bar where you could just ask for a glass of water or something.",54.5752758,-1.2264944,2015-09-12T02:25:55.142Z,2020-04-14T21:12:10.890Z,0,1,GB,False,18675,True
36544,Babymoon campsite,Dunsdale,Dunsdale,Cleveland,True,False,Just on the outskirts of dunsdale on the Guisborough side,The whole site and shop are very transgender friendly staff and beautiful atmosphere ,54.5608929,-1.0629414,2017-07-22T21:49:29.114Z,2020-04-14T21:18:37.388Z,0,0,GB,False,36544,True
48998,Salburn Sea front,Saltburn-by-the-Sea promenade ,Saltburn-by-the-Sea ,Cleveland,True,False,Public toilets on the sea front that have typical ladies/gents sides but the cubicles are individual stalls,,54.586571,-0.972634,2019-04-08T12:11:18.526Z,2019-04-08T12:11:18.559Z,0,0,GB,True,48998,True
37167,Public Library of Cincinnati and Hamilton County Westwood Branch,"3345 Epworth Ave, Cincinnati, OH 45211",Cincinnati,Ohio,True,True,From the Epworth entrance (Main Entrance) the restroom is directly to the left. ,Ask for the key at the desk,39.1481566,-84.6002934,2017-08-25T16:37:56.587Z,2017-08-25T16:37:56.587Z,0,1,US,False,37167,True
37544,Cincinnati Children's Hospital(EMERGENCY ROOM),"3333 Burnet Ave, Cincinnati, OH 45229",Cincinnati,Ohio,False,True,"Walk in through the EMERGENCY EXIT and go straight. Walk through the doors shown, have your appointment, ect. When you're done there will be a door down the hall to your left. On the other side you will see the bathroom.",,39.1404509,-84.502063,2017-09-07T23:33:29.941Z,2017-09-07T23:33:29.941Z,0,1,US,False,37544,True
4808,Cincinnati Zoo,3400 Vine Street,Cincinnati,OH,True,True,"At the front entrance and in several other places (see park map), single stall, family restrooms are available for visitors to the park. ",I have never had a problem here.,39.1422088,-84.5094868,2014-02-10T20:39:49.764Z,2014-02-13T04:34:25.482Z,1,1,USA,False,4808,True
20708,"French Hall, University of Cincinnati, West Campus",2815 Commons Way,Cincinnati,Ohio,False,False,"On School of Social Work's floor (first floor), across from their reception desk, located next to the other bathrooms.","Everyone is super friendly, but will give you your space. They will help you locate it if you need assistance.",39.1322632,-84.5126283,2016-03-28T12:58:31.483Z,2016-03-28T12:58:31.483Z,0,1,US,False,20708,True
25298,"10500 Montgomery Rd, Cincinnati, OH 45242, USA",10500 Montgomery Rd,Cincinnati,Ohio,True,True,4th floor!,,39.2520851,-84.3410789,2016-09-03T23:15:46.723Z,2016-09-03T23:15:46.723Z,0,0,US,False,25298,True
31806,Public Library of Cincinnati Clifton Branch,3400 Brookline Ave,Cincinnati,OH,True,True,First floor by the computers in the children's area.,Anyone can use this bathroom. You do not have to have a library card.,39.142566,-84.51501,2017-02-28T00:35:58.662Z,2017-02-28T00:35:58.662Z,0,1,US,False,31806,True
32191,Art Academy of Cincinnati,1212 Jackson St.,Cincinnati,Ohio,True,True,Lower level,There is a visitors sheet you need to sign at the front desk. Best to use on the weekend and claim you're looking at the art galleries. ,39.1087409,-84.5138186,2017-03-01T00:43:22.410Z,2017-03-01T00:43:22.410Z,0,0,US,False,32191,True
36493,Cincinnati Art Museum,953 Eden Park Drive,Cincinnati,OH,False,True,In the main atrium of the museum opposite the staircase. Facing north it is on the left corner. ,Museum is free so act like you are browsing. ,39.1139697,-84.497105,2017-07-19T15:20:00.542Z,2017-07-19T15:20:00.542Z,0,1,US,True,36493,True
37520,"10425 Reading Rd, Cincinnati, OH 45241, USA",10425 Reading Rd,Cincinnati,Ohio,True,True,Walk in though the lower door near the statues and walk down the stairs to your left. The single-stall is right next to the women's,,39.2547524,-84.4230722,2017-09-06T20:37:56.690Z,2017-09-06T20:37:56.690Z,0,1,US,False,37520,True
51214,"1227 Republic St, Cincinnati, OH 45202, USA",1227 Republic St,Cincinnati,Ohio,False,False,,,39.1091931,-84.5160285,2019-07-22T02:35:29.653Z,2019-07-22T02:35:29.673Z,0,0,US,False,51214,True
18109,Tacocracy,"4029 Hamilton Ave, Cincinnati, OH 45223",Cincinnati,Ohio,False,True,In the very back of the restaurant.,"This is the only multi-stall, inter-gender restroom I have encountered in Cincinnati.",39.1595024,-84.5396601,2015-07-28T17:57:40.254Z,2015-07-28T17:57:40.254Z,0,1,US,False,18109,True
20728,"(DAAP) College of Design, Architecture, Art, and Planning ","5470 Aronoff, Cincinnati, OH 45221",Cincinnati,Ohio,True,True,6th floor (6418 & 6420) near the offices for School of Design,,39.1331454,-84.509213,2016-03-28T16:03:33.449Z,2016-03-28T16:03:33.449Z,0,0,US,False,20728,True
12246,Mariemont Theater,"6906 Wooster Pike, Cincinnati, OH 45227",Cincinnati/Mariemont,Ohio,True,True,"Resteroom is a single occupancy with sink that's labled ""family"" (there are RR's labled by binary gender too) and it's directly off of the lobby down the first halway on the left.","I am not certain if it's handicap accessible but there are no steps.

You may want to call to check that they're open. (513) 272-2002  I don't know if you can get in without someone greeting you at the ticket 
booth or concession stand, since this place is so small. You may still be able to get to the restroom without buying a ticket since they don't collect tickets until you get deeper into the theater. I returned after a show in a small group and no one asked for our tickets.

This is a small artsy theater in an upper middle class area. They serve wine and fruit in their concession stand. The staff were friendly, even when I wasn't passing. It's on the main square in the middle of the strip mall. There's parking in the center of the square.

",39.145755,-84.374458,2014-10-26T02:05:29.796Z,2014-10-26T02:05:29.796Z,0,0,United States,False,12246,True
27068,Trinity Episcopal Church,501 S. Cincinnati Ave,Tulsa,Ok,False,False,2nd floor on the east side of the building. Gendered multi-stall safe restrooms on the right and single stall family restroom on the left.,"Business hours are 8:30-4:30 M-F, 7:30am-1:00pm and sometimes 4:30-6:3pm Sundays. Must be buzzed in at South door or East door unless there's an event or service going on when the doors are open. ",36.1521025,-95.9870105,2016-12-10T02:39:29.480Z,2016-12-10T02:39:29.480Z,0,1,US,False,27068,True
27069,Trinity Episcopal Church,501 S. Cincinnati Ave,Tulsa,Ok,False,False,2nd floor on the east side of the church near the bookstore. Gendered multi-stall safe restrooms on one side and single stall family restroom on the other.,You'll have to be buzzed in unless there's an event or service. Say you're there for a safe restroom when they ask how they can help you on the intercom. M-F hours are 8:30am-4:30pm. Sunday 7:00am-1:00pm and some times 4:30-6:30pm.,36.1521025,-95.9870105,2016-12-10T02:45:41.753Z,2016-12-10T02:45:41.753Z,0,3,US,False,27069,True
35091,Shell,9198 Cincinnati Columbus rd,West Chester,OH,True,False,,"You just have to go in and ask for the key from the cashier, don't have to be paying customer. ",39.3191452,-84.3678137,2017-05-16T16:36:23.697Z,2017-05-16T16:36:23.697Z,0,0,US,False,35091,True
37519,Wyoming Rec Center,"9940 Springfield Pike Cincinnati, OH  45215 United States",Wyoming,Ohio,True,True,"Walk into the pool area and turn left, there will be two single-stall family restrooms on either side of the water fountain","You have to pay to get into the pool, membership or one-time purchase ",39.2454506,-84.4687846,2017-09-06T20:27:08.438Z,2017-09-06T20:27:08.438Z,0,1,US,True,37519,True
793,TriCounty Mall,11700 Princeton Road,CINCINNATI,OH,False,True,"First floor of the mall, near the store entrance to Macy's. It is a single-user lockable 'family' restroom off a small hallway kitty-corner from the  fountain and furniture area.","Official hours are M-S 10-9, Sun 12-6, though the mall doors are generally open for an hour or two before and after the ""official"" hours.",39.083981,-84.583612,2014-02-02T20:50:06.076Z,2014-02-02T20:50:06.076Z,1,1,US,False,793,True
4806,Sidewinder Coffee,4181 Hamilton Avenue,Cincinnati,OH,True,False,,"Restrooms are labelled ""Men"" and ""Women"", but this coffee shop has a large transgender and gender queer clientele and employees.",39.1630318,-84.5401829,2014-02-10T20:24:06.690Z,2014-03-21T17:20:03.352Z,1,2,USA,False,4806,True
4807,Om Cafe,329 Ludlow Avenue,Cincinnati,OH,True,True,"Back of store, to right of counter","There are two, single-stall, unisex bathrooms for customers and people attending events.",39.14344,-84.520599,2014-02-10T20:33:02.947Z,2014-03-21T17:19:55.393Z,1,2,45220,False,4807,True
5099,Village Green Foundation,1415 Knowlton St.,Cincinnati,OH,False,True,"Unisex bathroom in the basement past all the bike parts. This is the only public bathroom in the building, so there aren't any accessible bathrooms.","Open hours may vary for each program of the Village Green Foundation. Check websites/social media for MoBo, Village Green Gardens, and Soapbox Books & Zines for current open hours.",39.1613016,-84.5347101,2014-02-24T20:17:08.478Z,2014-02-24T20:17:08.478Z,1,0,United States,False,5099,True
16571,Target, 8680 Beechmont Ave,Cincinnati,Ohio,True,True,"Just inside the door, on the way to the main restrooms",,39.0738132,-84.3133336,2015-03-12T02:32:07.581Z,2015-03-12T02:32:07.581Z,0,0,US,False,16571,True
16777,Target ,8680 Beechmont Avenue,Cincinnati,Ohio,True,True,on the left after entering front doors ,,39.0738132,-84.3133336,2015-03-19T00:17:15.289Z,2015-03-19T00:17:15.289Z,0,0,US,False,16777,True
17050,Target,9841 Waterstone Blvd,Cincinnati,Ohio,True,True,"Through front door, then directly to the left",Family restroom,39.2960088,-84.304718,2015-04-07T08:51:00.033Z,2015-04-07T08:51:00.033Z,0,1,US,False,17050,True
19701,Northgate mall- Xscape theatre,9471 Colerain Ave.,Cincinnati ,Ohio ,True,True,"Back by the theaters, marked as a ""family restroom""",Must have bought a movie ticket,39.2426167,-84.5946455,2015-12-27T00:30:11.042Z,2015-12-27T00:30:11.042Z,0,0,US,False,19701,True
20706,French Hall West,2815 Commons Way,Cincinnati,Ohio,False,True,"On School of Social Work's floor of building (first floor), across from School of Social Work's reception desk, near the other restrooms.","Everyone in this building is super friendly, but also give you your space, so do not worry about being questioned. They'll help you find it if you get lost.",39.1322632,-84.5126283,2016-03-28T12:56:11.925Z,2016-03-28T12:56:11.925Z,0,0,US,False,20706,True
20707,French Hall West,2815 Commons Way,Cincinnati,Ohio,False,True,"On School of Social Work's floor of building (first floor), across from School of Social Work's reception desk, near the other restrooms.","Everyone in this building is super friendly, but also give you your space, so do not worry about being questioned. They'll help you find it if you get lost.",39.1322632,-84.5126283,2016-03-28T12:56:12.154Z,2016-03-28T12:56:12.154Z,0,0,US,False,20707,True
20709,"Starbucks, University of Cincinati, on Main Street",2801 UC MainStreet,Cincinnati,Ohio,False,True,"Located in the back of the shop, near the station with cremer and napkins.",You can use it without buying anything.,39.132092,-84.5174453,2016-03-28T13:03:40.995Z,2016-03-28T13:03:40.995Z,0,1,US,False,20709,True
20713,Nordstrom in the Kenwood Towne Centre,7801 Montgomery Road,Cincinnati,Ohio,False,False,Right past men's and kids' section near the elevators that take you down to the parking garage.,,39.20004,-84.3792398,2016-03-28T14:14:41.140Z,2016-03-28T14:14:41.140Z,0,1,US,False,20713,True
20715,Nordstrom in the Kenwood Towne Centre,7801 Montgomery Road,Cincinnati,Ohio,False,False,On the second floor near the elevators.,,39.20004,-84.3792398,2016-03-28T14:18:20.448Z,2016-03-28T14:18:20.448Z,0,1,US,False,20715,True
20716,Food Court,7875 Montgomery Road,Cincinnati,Ohio,False,True,"There is a hallway next to the Sbarro in the food court that directs you to Public Safety/Women's restrooms. Back in that hallway, however, and two gender neutral restrooms.",,39.2027663,-84.3774247,2016-03-28T14:35:02.112Z,2016-03-28T14:35:02.112Z,0,0,US,False,20716,True
20717,Nordstrom Second Floor,7801 Montgomery Road,Cincinnati,Ohio,False,True,It is located near the elevators on the second floor.,,39.20004,-84.3792398,2016-03-28T14:36:36.646Z,2016-03-28T14:36:36.646Z,0,1,US,False,20717,True
20718,Macy's at Kenwood Towne Centre,7875 Montgomery Road,Cincinnati,Ohio,True,True,"It is located on the second floor near the women's jeans. It is labeled as a ""family"" restroom, but it is unisex and accessible. It is to the right of the women's restroom.",,39.2027663,-84.3774247,2016-03-28T14:39:39.869Z,2016-03-28T14:39:39.869Z,0,1,US,False,20718,True
20722,Steger Student Life Center,2851 Woodside Drive,Cincinnati,Ohio,True,False,"5th floor, towards EPS side of the building. Tucked away in a hallway near the water fountains.",,39.1327151,-84.5159018,2016-03-28T15:14:54.233Z,2016-03-28T15:14:54.233Z,0,1,US,False,20722,True
20723,Nordstrom at Kenwood Towne Centre,7803 Montgomery Road,Cincinnati,Ohio,True,True,It is located on the first floor past the men's/kids' section to the right of the elevators.,,39.2004544,-84.3761977,2016-03-28T15:30:48.701Z,2016-03-28T15:30:48.701Z,0,1,US,False,20723,True
20730,Langsam Library,College Dr,Cincinnati,Ohio,True,True,5th floor (546) in the Langsam Computer Lab near the copy machine.,Langsam Computer Lab is open 24/7. After 10pm it can be accessed through the outside stairs to the left of the 4th floor entrance (main) or through the elevator in the 4th floor entrance.,39.1336637,-84.517556,2016-03-28T16:34:43.944Z,2016-03-28T16:34:43.944Z,0,0,US,False,20730,True
20731,Steger Student Life Center,UC Mainstreet,Cincinnati,Ohio,True,True,"5th floor (553) near the Ethnic Programs and Services office, tucked away in a hallway just around the corner from the water fountains.",,39.1321715,-84.5165115,2016-03-28T16:39:50.356Z,2016-03-28T16:39:50.356Z,0,0,US,False,20731,True
20779,Potbelly Sandwich Works,2692 Madison Rd,Cincinnati,Ohio,True,False,"In Rookwood Pavilion near Don Pablo's, AT&T and Starbucks.",You don't have to be a paying customer. They are gendered but the staff is friendly and doesn't care which restrooms people use.,39.1462547,-84.4430877,2016-03-28T21:47:44.625Z,2016-03-28T21:47:44.625Z,0,2,US,False,20779,True
20906,Old Chem,2855 Campus Way,Cincinnati,Oh,True,True,"502, around the corner from elevator",,39.13244,-84.5184017,2016-03-30T19:38:51.943Z,2016-03-30T19:38:51.943Z,0,1,US,False,20906,True
20912,Gettler Stadium/Calhoun Garage,W. Corry St,Cincinnati,Ohio,True,True,Located in Gettler Stadium on the guest side of the feild and refreshments.,"open even when there isn't soccer games, free to the public.",39.1292273,-84.5114004,2016-03-30T20:27:47.746Z,2016-03-30T20:27:47.746Z,0,0,US,False,20912,True
21375,Campus Rec Center,UC MainStreet,Cincinnati,Ohio,True,False,0222A-B in the bottom floor near pools,"Four individual bathrooms, not gender segregated, have toilet and shower, and hair dryer.",39.1321715,-84.5165115,2016-04-14T18:55:34.184Z,2016-04-14T18:55:34.184Z,0,1,US,False,21375,True
21565,Sleepy Bee Cafe,3098 Madison Rd,Cincinnati,Ohio,True,True,There are two located in Sleepy Bee Cafe. They are towards the back of the restaurant to the right.,,39.153536,-84.430038,2016-04-21T15:33:04.292Z,2016-04-21T15:33:04.292Z,0,2,US,False,21565,True
23079,Colerain Target,9040 Colerain Avenue,Cincinnati,Ohio,True,True,,,39.2357067,-84.5888296,2016-06-15T02:26:17.945Z,2016-06-15T02:26:17.945Z,0,0,US,False,23079,True
23080,Colerain Old Navy,3687 Stone Creek Blvd,Cincinnati,Ohio,True,False,By the dressing rooms,,39.2510781,-84.6022147,2016-06-15T02:28:09.527Z,2016-06-15T02:28:09.527Z,0,0,US,False,23080,True
23458,Arcade Legacy: Bar Edition,3929 Spring Grove Ave,Cincinnati,Ohio,True,True,Straight back from the entrance in its own hallway.,"Two unisex rooms with locks. Both have drawings of Samus. No gendered rooms, so no questions will be asked. 

It's a bar that checks IDs, so 21+ most likely.",39.157917,-84.540198,2016-06-21T17:48:13.719Z,2016-06-21T17:48:13.719Z,0,0,US,False,23458,True
23507,Menards,2789 Cunningham Dr,Cincinnati,Ohio,True,False,Up front by the registers. There is a hall way that dead ends into the men's and women's restrooms. There is a door on the left side of the hallway that is a non-gender one stall bathroom ,,39.2518795,-84.4281504,2016-06-23T03:28:30.772Z,2016-06-23T03:28:30.772Z,0,2,US,False,23507,True
25790,Starbucks ,3568 Columbia Parkway,Cincinnati,Ohio,True,True,In the back right of the store.,,39.1157229,-84.4364474,2016-10-08T19:14:03.359Z,2016-10-08T19:14:03.359Z,0,0,US,False,25790,True
27709,FUSIAN Sushi,600 Vine Street,Cincinnati,OH,True,True,,,39.1025753,-84.5133282,2017-01-22T23:32:45.291Z,2017-01-22T23:32:45.291Z,0,0,US,False,27709,True
27710,FUSIAN Sushi,3780 Paxton Ave,Cincinnati,OH,True,True,,,39.1459842,-84.4290837,2017-01-22T23:33:40.992Z,2017-01-22T23:33:40.992Z,0,0,US,False,27710,True
27711,FUSIAN Sushi,8060 Montgomery Road,Cincinnati,OH,True,True,,,39.2018982,-84.3710655,2017-01-22T23:34:17.728Z,2017-01-22T23:34:17.728Z,0,0,US,False,27711,True
27712,FUSIAN Sushi,11 Martin Luther King Drive E,Cincinnati,OH,True,True,,,39.1354828,-84.5083099,2017-01-22T23:34:57.051Z,2017-01-22T23:34:57.051Z,0,0,US,False,27712,True
28524,Esquire Theater,320 Ludlow Ave,Cincinnati ,ohio,False,True,,,39.1438815,-84.5202422,2017-02-24T08:48:31.072Z,2017-02-24T08:48:31.072Z,0,0,US,False,28524,True
28527,Esquire Theatre,320 Ludlow Ave,Cincinnati,Ohio,False,False,"Down the hallway in the back, directly across from the small bar. ","If you're a ""paying customer"" you'll be totally fine. It might be more difficult if you aren't simply because the bathroom is past concessions and they might suspect you're trying to sneak into a movie. But if if you're comfortable enough to ask to use the gender neutral restroom in the back most of the employees probably wouldn't care at all. ",39.1438815,-84.5202422,2017-02-24T08:53:59.822Z,2017-02-24T08:53:59.822Z,0,0,US,False,28527,True
29075,Red Tree Gallery and Coffee Shop,3210 Madison Rd,Cincinnati,OH,True,True,,"Two bathrooms. Both used to be gendered and were recently remodeled and are now gender neutral. Both are handicap accessible and are single bathrooms/stalls. There's a ramp in the building and two entrances so you can avoid the stairs if need be. One is next to the back entrance, one is right behind the counter. If you want to be more discrete, go in the back entrance and use the bathroom there.",39.1551326,-84.4272323,2017-02-25T01:34:04.991Z,2017-02-25T01:34:04.991Z,0,0,US,False,29075,True
29081,Blegen Library,417 Blegen Library,Cincinnati,OH,True,True,Main floor (4th floor). Go around the Classics office (i.e. if you are staring at the classics door go to the left and the bathroom is off a tiny hallway to the right. Bathroom is then on the left. It is super hard to find but definitely there.,"If you have a hard time finding it and are uncomfortable asking where it is, ask someone to show you where the elevator is to the Archives/Rare Books Library; you'll see it next to that elevator - different from the main elevators for the building.",39.1295935,-84.5192898,2017-02-25T01:38:46.838Z,2017-02-25T01:38:46.838Z,0,0,US,False,29081,True
29087,Lindner Center - University Health Services,2751 O'Varsity Way,Cincinnati,OH,True,True,"Located in the mental health waiting room, down the hall from the main health clinic, across from the Student Health Insurance Office.",Single bathroom/stall. You don't have to be a patient or waiting on an appointment to go into the waiting room and use the bathroom. There are noise machines so nobody in surrounding offices/walls can hear you.,39.1307186,-84.5149797,2017-02-25T01:41:56.227Z,2017-02-25T01:41:56.227Z,0,0,US,False,29087,True
29401,Chipotle ,3725 Paxton ave,Cincinnati ,Oh,True,False,In the back of the store,,39.1453275,-84.4318387,2017-02-25T08:36:54.739Z,2017-02-25T08:36:54.739Z,0,1,US,False,29401,True
30302,Loving Hut,6227 Montgomery Rx,Cincinnati ,OH,True,False,2 gender neutral bathrooms. First 2 doors on the right as you enter the dining room,I am not sure if you have to be a paying customer or not.,39.1840306,-84.4242364,2017-02-26T07:45:50.367Z,2017-02-26T07:45:50.367Z,0,1,US,False,30302,True
30417,Meijer Stone Creek,3711 Stonecreek Blvd,Cincinnati,Ohio ,True,True,In front of store near produce department- family restroom,,39.2511516,-84.603918,2017-02-26T14:04:02.797Z,2020-04-14T21:15:39.100Z,0,0,US,False,30417,True
30418,The Rook OTR,1115 vine st,Cincinnati,Ohio,True,True,,,39.107662,-84.5149787,2017-02-26T14:06:22.413Z,2020-04-14T21:16:06.245Z,0,0,US,False,30418,True
30424,Meijer ,3711 Stone Creek Blvd,Cincinnati ,45251,True,True,"Front of store, near produce section- family/unisex bathroom ",,39.2511516,-84.603918,2017-02-26T14:11:47.440Z,2020-04-14T21:16:20.087Z,0,0,US,False,30424,True
30425,Meijer,3711 Stonecreek Blvd,Cincinnati ,Ohio,True,True,"Front of store, near produce section- family/unisex bathroom",,39.2511516,-84.603918,2017-02-26T14:12:58.044Z,2020-04-14T21:16:20.524Z,0,1,US,False,30425,True
31316,St Xavier High School,600 W North Bend Rd,Cincinnati,OH,True,True,,,39.2085737,-84.5064417,2017-02-27T13:47:07.245Z,2017-02-27T13:47:07.245Z,0,5,US,False,31316,True
31844,Taft's ale House tap room,1429 race street,Cincinnati,Ohio,True,True,In the back to the left. ,"A restaurant/bar, may have to be 21+ but unsure. Multiple private stalls labeled unisex. ",39.111354,-84.51752,2017-02-28T01:20:20.136Z,2017-02-28T01:20:20.136Z,0,1,US,False,31844,True
31939,Clifton Branch Library,3400 Brookline Avenue,Cincinnati,OH,True,True,On the first floor behind the children's computers.,You do not need to have a library card or check out materials to use this bathroom.,39.142566,-84.51501,2017-02-28T04:07:27.630Z,2017-02-28T04:07:27.630Z,0,0,US,False,31939,True
31965,La Salle High School,3091 N Bend Rd,Cincinnati,oh,True,True,,,39.1882803,-84.5867252,2017-02-28T04:57:33.277Z,2017-02-28T04:57:33.277Z,0,2,US,False,31965,True
31967,Elder High School,3900 Vincent Ave,Cincinnati,oh,True,True,,,39.111911,-84.580051,2017-02-28T05:01:49.158Z,2017-02-28T05:01:49.158Z,0,1,US,False,31967,True
32194,Coffee Emporium,110 E Central Pkwy,Cincinnati,Ohio,True,True,,"Paying customer, ask for the key at the counter where you order",39.1077626,-84.5125284,2017-03-01T00:50:06.789Z,2017-03-01T00:50:06.789Z,0,0,US,False,32194,True
32389,Quan Hapa,1331 Vine St,Cincinnati,Ohio,True,True,,Paying customer,39.1104268,-84.5156064,2017-03-01T15:09:57.024Z,2017-03-01T15:09:57.024Z,0,1,US,False,32389,True
32512,Clifton United Methodist Church,3416 Clifton Ave,Cincinnati,OH,True,True,Enter at Senator PL entrance. Two accessible unisex down the stairs to the R. One unisex down the stairs to the left. Past Men's room at the end of the hall.,"Re: accessibility. A chair lift/platform is available to get to lower level
",39.1443231,-84.5185052,2017-03-01T19:57:29.488Z,2017-03-01T19:57:29.488Z,0,0,US,False,32512,True
32695,Starbucks,9911 Colerain Ave,Cincinnati,OH,True,True,,,39.252532,-84.5989932,2017-03-02T05:11:18.489Z,2017-03-02T05:11:18.489Z,0,1,US,False,32695,True
32955,The Red Balloon Cafe+Play,6200 Montgomery Rd,Cincinnati,OH,True,True,,Family bathrooms,39.1829482,-84.4251488,2017-03-03T02:25:12.717Z,2017-03-03T02:25:12.717Z,0,0,US,False,32955,True
33160,Izen's Drunken Bento,212 W McMillan St,Cincinnati,Ohio,True,True,In the back,Paying customer ,39.1279829,-84.5198289,2017-03-28T01:09:05.971Z,2017-03-28T01:09:05.971Z,0,0,US,False,33160,True
33161,Roll On In,2504 W Clifton Ave,Cincinnati,Ohio,True,True,,,39.1280653,-84.5189822,2017-03-28T01:11:07.398Z,2017-03-28T01:11:07.398Z,0,0,US,False,33161,True
34373,Nordstrom ,7875 Montgomery Rd,Cincinnati ,OH,False,True,First floor by the entrance doors ,,39.2025027,-84.3770223,2017-04-21T20:07:01.669Z,2017-04-21T20:07:01.669Z,0,0,US,False,34373,True
35221,McMicken FreeSpace,527 W McMicken Ave,Cincinnati,Ohio,True,True,,"this is a safe space for queer bodies
knock on the door, let ryan (or whoever answers) know you need the bathroom 
it's small, but nice 
pads are also avaible for menstrating humans",39.121707,-84.52983,2017-05-22T06:38:30.336Z,2017-05-22T06:38:30.336Z,0,1,US,False,35221,True
36110,The  Rook,1115 Vine Street,Cincinnati,Ohio,True,True,,Super fun bar with board games! ,39.107675,-84.51495,2017-06-29T22:49:33.319Z,2017-06-29T22:49:33.319Z,0,0,US,False,36110,True
36229,Kroger,1 E Corry St,Cincinnati,OH,True,True,"Unsure about second restrooms, but there's a single occupancy neutral restroom in the second floor dining area, which can be accessed by elevator!",,39.1291021,-84.5096064,2017-07-06T16:52:08.405Z,2017-07-06T16:52:08.405Z,0,0,US,True,36229,True
36325,Trader Joe's,7788 Montgomery Road,Cincinnati ,Oh,True,True,Two single person gender neutral bathrooms at back of store. ,,39.197383,-84.3817211,2017-07-11T15:09:47.689Z,2017-07-11T15:09:47.689Z,0,1,US,False,36325,True
36385,Skyline chili,4588 Montgomery Rd,Cincinnati,Ohio,True,True,,,39.1591245,-84.4545491,2017-07-13T22:40:42.047Z,2017-07-13T22:40:42.047Z,1,0,US,True,36385,True
36386,Zoup,4426 Montgomery Rd,Cincinnati,Ohio,True,False,,,39.157799,-84.4579695,2017-07-13T22:44:05.246Z,2017-07-13T22:44:05.246Z,0,0,US,False,36386,True
36665,Jimmy Johns,11493 Princeton Pike,Cincinnati,Ohio,True,False,In the very back of store. Male and female bathrooms but use whichever you are comfortable with.,General Managers husband is a ftm who does not tolerate any form of harassment from her staff or other patrons towards the glbtqia population.,39.2850687,-84.4683965,2017-07-28T18:20:30.963Z,2017-07-28T18:20:30.963Z,0,1,US,False,36665,True
36797,east gate mall,4601 Eastgate Blvd. ,Cincinnati,Ohio,True,False,,Family Bathroom,39.1031558,-84.2717165,2017-08-03T22:10:53.961Z,2017-08-03T22:10:53.961Z,0,0,US,False,36797,True
37218,American Legacy Tours,1332 Vine Street,Cincinnati,Ohio,True,True,Both bathrooms in shop are unisex. ,,39.1106113,-84.5151897,2017-08-26T14:29:27.202Z,2017-08-26T14:29:27.202Z,0,2,US,False,37218,True
37562,Graeter's Ice Cream,"3747 Montgomery Rd, Norwood, OH 45212",Cincinnati,Ohio,True,False,Walk in and the hall to the bathroom is to  the right of the ordering and checkout area. ,,39.1482564,-84.4665684,2017-09-08T22:15:24.894Z,2017-09-08T22:15:24.894Z,0,0,US,False,37562,True
37563,TriCounty Mall,11700 Princeton Pike,Cincinnati,Ohio,True,True,First floor by kids play area,,39.2889965,-84.4634811,2017-09-08T22:31:26.540Z,2017-09-08T22:31:26.540Z,0,0,US,False,37563,True
37665,Panino,1313 Vine St,Cincinnati ,Ohio,True,True,Go into the dining area. Head toward the hallway at the back. Go all the way to the end of the hall.,,39.109885,-84.515631,2017-09-13T15:58:57.667Z,2017-09-13T15:58:57.667Z,0,0,US,False,37665,True
38447,Starbucks,2692 Madison Rd,Cincinnati,Oh,True,True,,,39.1465611,-84.4441794,2017-10-31T02:09:06.743Z,2017-10-31T02:09:06.743Z,0,0,US,True,38447,True
38557,Melt,4100Hamilton Ave.,Cincinnati,Ohio,True,True,,Single stalls,39.160587,-84.538848,2017-11-08T23:21:05.311Z,2017-11-08T23:21:05.311Z,0,0,US,True,38557,True
43592,Taste of Belgium,1133 Vine Street,Cincinnati ,Ohio,True,True,,Typically must be a paying customer. ,39.1081413,-84.5148467,2018-09-10T20:21:19.701Z,2020-04-14T21:25:35.345Z,0,0,US,True,43592,True
43729,Liberty's Bar and Bottle,1427 Main St,Cincinnati,Ohio,False,True,,,39.112089,-84.5126949,2018-09-11T16:20:30.307Z,2018-09-11T16:20:30.307Z,0,0,US,False,43729,True
44285,Starbucks ,5222 Beechmont Avenue,Cincinnati ,Ohio,True,True,,,39.1068621,-84.3967872,2018-09-16T22:22:45.394Z,2020-04-14T21:27:30.043Z,0,0,US,True,44285,True
46356,Loving Hut,Montgomery,Cincinnati ,Ohio,True,True,"Walk in to Loving Hut, and it’s to the right after the counter. ",,39.182167,-84.4272422,2018-12-09T00:31:00.550Z,2018-12-09T00:31:00.672Z,0,1,US,False,46356,True
46619,Union Terminal Museum ,1301 Western Ave,Cincinnati,Ohio,True,True,"At least on the lowest level by the kids area and traveling exhibitions there are several unisex/ gender neutral bathrooms along with family, gendered and nursing.  ",Don’t think you have to be paying but it’s an awesome place anyway ,39.1094425,-84.5322127,2018-12-24T19:28:16.972Z,2018-12-24T19:28:17.077Z,0,0,US,True,46619,True
46819,Starbucks,6800 Wooster Pike,Cincinnati,Ohio,True,True,"In the back, on the right side of both entrances. ","There are two separate gender neutral bathrooms, both have changing tables, the one on the left contains a urinal. You do not need to buy anything. ",39.1454147,-84.3766305,2019-01-04T15:05:57.866Z,2019-01-04T15:05:57.999Z,0,0,US,True,46819,True
47924,Tillie’s Lounge ,Hamilton Avenue,Cincinnati,Ohio,False,False,,,39.1894873,-84.546201,2019-03-05T16:49:04.907Z,2019-03-05T16:49:05.549Z,0,0,US,False,47924,True
49490,Rock Bottom Brewery and Restaurant ,28 E 5th St,Cincinnati,Ohio,True,True,,"There’s a sign that says All Gender Bathroom, it’s a single stall.",39.1020522,-84.5123052,2019-04-30T22:14:13.965Z,2019-04-30T22:14:14.044Z,0,0,US,True,49490,True
50024,Casa Figueroa,6112 Montgomery Rd,Cincinnati,Ohio,False,True,"On the second floor, to the right ",For customers,39.182254,-84.4266062,2019-05-26T21:51:00.906Z,2019-05-26T21:51:00.929Z,0,0,US,False,50024,True
50131,Alreddy Coffee and Cafe,11083 Reading Road,Cincinnati,Ohio,True,False,"Near the back door thatbis ramp accessible, behind the kitchen",For paying customers only,39.269974,-84.4132529,2019-06-01T16:05:59.545Z,2019-06-01T16:05:59.563Z,0,0,US,False,50131,True
50537,Bruegger’s,3842 Paxton Ave,Cincinnati,OH,True,True,,,39.1460938,-84.4272517,2019-06-19T17:36:22.774Z,2019-06-19T17:36:22.880Z,0,1,US,False,50537,True
50548,Sitwells coffeehouse act 2,Ludlow ave,Cincinnati ,Ohio,True,True,In the back,,39.1469869,-84.5310705,2019-06-19T22:00:27.069Z,2019-06-19T22:00:27.094Z,0,1,US,False,50548,True
51195,O Pie O,1527 Madison Road,Cincinnati,OH,True,True,,,39.1294979,-84.4776253,2019-07-21T18:23:13.035Z,2019-07-21T18:23:13.139Z,0,0,US,False,51195,True
51215,LOCOBA By Platform,1201 Main Street,Cincinnati,OH,True,False,,,39.1088645,-84.5118755,2019-07-22T11:18:56.394Z,2019-07-22T11:18:56.736Z,0,0,US,False,51215,True
51219,Sundry and Vice,West 13th street,Cincinnati,Oh,False,True,,,39.1093289,-84.5158732,2019-07-22T13:39:01.034Z,2019-07-22T13:39:01.152Z,0,0,US,False,51219,True
51221,Rohs Street CafÃ©,245 W McMillan St,Cincinnati,Ohio,False,False,Straight back in the corner from main entrance,,39.1277781,-84.5214455,2019-07-22T15:27:48.863Z,2019-07-22T15:27:48.888Z,0,0,US,True,51221,True
51292,La Grassa,7014 Miami Ave,Cincinnati,OH,True,True,"Down the hall, to the left. ",,39.1886514,-84.363049,2019-07-26T16:20:04.210Z,2019-07-26T16:20:04.239Z,0,0,US,False,51292,True
51293,Urbana Cafe,1206 Broadway St,Cincinnati,OH,False,True,"Up the stairs, to the left. ",,39.1099134,-84.5083112,2019-07-26T16:20:59.933Z,2019-07-26T16:20:59.954Z,0,0,US,False,51293,True
51993,Urbana Cafe,1206 Broadway St,Cincinnati,OH,True,True,,,39.1099134,-84.5083112,2019-08-17T13:45:11.744Z,2019-08-17T13:45:11.798Z,0,0,US,False,51993,True
51996,Pendleton Parlor: Ice Cream & Cookie Dough,1218 Broadway St.,Cincinnati,Ohio,False,True,,,39.1102252,-84.50826,2019-08-17T16:34:44.742Z,2019-08-17T16:34:44.862Z,0,0,US,False,51996,True
51997,Collective Espresso ,207 Woodward St.,Cincinnati ,Ohio,False,True,,,39.1104306,-84.5115478,2019-08-17T16:36:56.218Z,2019-08-17T16:36:56.331Z,0,0,US,False,51997,True
51998,Bean & Barley,2500 Madison Road,Cincinnati,OH,False,True,in the basement ,,39.1405236,-84.4509901,2019-08-17T16:39:32.502Z,2019-08-17T16:39:32.526Z,0,0,US,False,51998,True
52109,panino,1313 Vine Street,Cincinnati,OH,True,True,,,39.109885,-84.515631,2019-08-22T16:29:18.683Z,2019-08-22T16:29:18.801Z,0,0,US,False,52109,True
52158,Melt Revival,4100 Hamilton Avenue,Cincinnati,OH,True,True,,,39.1602401,-84.5390583,2019-08-24T18:49:12.548Z,2019-08-24T18:49:12.570Z,0,0,US,True,52158,True
52190,The Littlefield,3934 Spring Grove Ave,Cincinnati,OH,True,True,,,39.1576479,-84.5398905,2019-08-26T01:33:43.541Z,2019-08-26T01:33:43.679Z,0,0,US,True,52190,True
53292,Tokyo Kitty,575 Race St,Cincinnati,Ohio,True,True,"They have 4 single stall marked unisex / (all gender?) bathrooms. 

Also i think one at main entrance before the bouncer. So possible even if no id a bathroom accessible.","It's a bar so you generally need it if the bouncer checks 21+. Otherwise transgender positive affirming safer place. One bartender evens dress mixed gender. Friendly karaoke bar. Relaxed atmosphere. LGBT friendly.
5pm to at least midnight every night ",39.1017796,-84.5150016,2019-10-11T02:36:11.519Z,2019-10-11T02:36:11.629Z,0,0,US,False,53292,True
53293,Kroger,100 E Court St,Cincinnati,Ohio,True,True,Not the corperate but new store (2019) it's in the back opposite of customer service desk. Two gender neutral / all gender (marked) single stalls ,Kroger got 100 on LGBT score from HRC group. It's a Kroger so same atmosphere.. 2 all gender labeled single stalls. ðŸ˜„. Maybe browse a bit but probably don't even need to honestly,39.106826,-84.512538,2019-10-11T02:48:37.198Z,2019-10-11T02:48:37.320Z,0,0,US,True,53293,True
54021,Heritage Unitarian church ,2710 Newtown Road ,Cincinnati ,Ohio ,True,False,"After entering turn left,  can't miss ",Open week days and Sunday mornings ,39.1069587,-84.365952,2019-11-17T00:40:45.164Z,2020-04-14T21:02:00.899Z,0,0,US,False,54021,True
55148,Tickle Pickle Northside,4176 Hamilton Avenue,Cincinnati,Ohio,True,True,"There are two single stall bathrooms that are a straight shot through the front door, past the front counter and by the trash cans. The changing table is in the one on the left.",,39.1630336,-84.5396904,2020-02-04T02:57:40.329Z,2020-04-14T21:01:46.461Z,0,0,US,True,55148,True
55616,Pho Lang Thang,1828 Race St.,Cincinnati ,OH,True,True,First floor in the back,"Not sure if you have to be a paying customer or not, but restrooms are clean and spacious.",39.1164121411863,-84.5181923816933,2020-02-22T22:11:13.318Z,2020-02-22T22:11:13.416Z,0,1,US,False,55616,True
56679,Target,6150 Glenway Ave,Cincinnati,Ohio,True,False,Right in the front by the other bathrooms!,,39.1451432,-84.6201131,2020-10-07T19:08:34.652Z,2020-10-07T19:08:34.726Z,0,0,US,True,56679,True
57087,Five Below ,7800 Montgomery Rd,Cincinnati,Ohio,False,False,Back of the store behind the green door ,Separated by make and female but because itâ€™s only one stall each no one really cares which one you use ,39.1977201,-84.378572,2021-01-14T16:41:00.019Z,2021-01-14T16:41:00.141Z,0,0,US,False,57087,True
41227,Carnegie library of Pittsburgh ,"2205 E Carson St, Pittsburgh, PA 15203",Pittsburgh ,Pa,True,False,At he entrance to the right. Get key from the box at the front desk,,40.4287109,-79.9742162,2018-05-05T15:04:24.636Z,2018-05-05T15:04:24.636Z,0,0,US,False,41227,True
2088,Pittsburgh Mills Mall Movie Theater,Pittsburgh Mills Blvd,Tarentum,PA,True,True,"Men's, Women's, & Family bathrooms in the movie theater. ",I always use the family bathroom and have never had a problem. ,40.5696202,-79.7993509,2014-02-02T20:51:58.905Z,2014-02-25T00:52:05.901Z,1,0,United States,False,2088,True
3523,"Cathedral of Learning, University of Pittsburgh",4200 Fifth Ave.,Pittsburgh,PA,False,True,34th Floor of the Cathedral of Learning.  It's best to take an elevator to the 36th floor and walk down two flights of stairs.  ,The building is closed to people without University of Pittsburgh IDs after a certain hour (around 11pm).  ,40.4439265,-79.9539022,2014-02-02T20:54:08.254Z,2014-02-02T20:54:08.254Z,1,0,US,False,3523,True
3524,"William Pitt Union, University of Pittsburgh",3959 Fifth Ave,Pittsburgh,PA,True,True,6th Floor of the William Pitt Union.   ,"This floor also has the University of Pittsburgh's undergraduate LGBTQ group, the Rainbow Alliance, which holds office hours every weekday during business hours.",40.443238,-79.957651,2014-02-02T20:54:08.373Z,2014-02-02T20:54:08.373Z,1,2,US,False,3524,True
1759,Images Pittsburgh,965 LIBERTY AVE,Pittsburgh,PA,True,False,Rear of the building...3 seperate locking bathrooms,,40.443561,-79.996053,2014-02-02T20:51:31.954Z,2014-02-02T20:51:31.954Z,1,1,US,False,1759,True
3525,"Market Central, University of Pittsburgh",3990 Fifth Ave,Pittsburgh,PA,True,True,"It's on the ground floor, under the cylindrical buildings.  ",This is inside an all-you-can-eat buffet.  They charge to let you in.  ,40.4431417,-79.9565593,2014-02-02T20:54:08.487Z,2014-02-02T20:54:08.487Z,1,0,US,False,3525,True
3526,"Chevron, University of Pittsburgh",219 Parkman Ave,Pittsburgh,PA,False,True,5th Floor of Chevron building.,"The building does close at night.  Generally open to all, but may be ID-restricted at certain times.",40.447848,-79.958273,2014-02-02T20:54:08.620Z,2014-02-02T20:54:08.620Z,1,0,US,False,3526,True
3527,"Towers Dorms, University of Pittsburgh",Towers 3990 Fifth Ave,Pittsburgh,PA,False,True,Every third floor of each Towers building.  ,Student ID is required to enter the dorms.,40.4431417,-79.9565593,2014-02-02T20:54:08.757Z,2014-02-02T20:54:08.757Z,1,0,US,False,3527,True
3528,"Holland Hall, University of Pittsburgh","Holland Hall, 3990 Fifth Ave",Pittsburgh,PA,False,False,Top floor of Holland Hall,Student ID required to enter the dorm.,40.4431417,-79.9565593,2014-02-02T20:54:08.933Z,2014-02-02T20:54:08.933Z,1,0,US,False,3528,True
18420,"115 Federal Street, Pittsburgh, PA 15212, USA",115 Federal Street,Pittsburgh,Pennsylvania,True,False,,,40.4471507,-80.0064087,2015-08-19T21:50:47.384Z,2015-08-19T21:50:47.384Z,0,0,US,False,18420,True
22293,"5935-5943 Penn Ave, Pittsburgh, PA 15206, USA",5935-5943 Penn Ave,Pittsburgh,Pennsylvania,True,True,"We have an all gender restroom at the Kelly Strayhorn Theater. 

We have one at the Alloy Studios upstairs. ",,40.461878,-79.9253913,2016-05-25T18:47:07.694Z,2016-05-25T18:47:07.694Z,0,0,US,False,22293,True
24781,Pittsburgh Center for Creative Reuse,214 N. Lexington St. ,Pittsburgh,PA,True,True,Around the corner from Construction Junction in the same building. ,"Open 11am-6pm. Don't need to buy anything, just browse for a minute and nobody will ask anything.  Restroom has a rainbow over it and a sign that says ""everyone welcome.""",40.449987,-79.8978841,2016-08-17T19:55:06.850Z,2016-08-17T19:55:06.850Z,0,1,US,False,24781,True
26345,University of Pittsburgh,3990 fifth Ave,Pittsburgh,PA,True,True,https://www.studentaffairs.pitt.edu/lgbtqia/single-occupancy-restrooms/ ,The University has a full map of all single-user and gender neutral stalls on campus. See link.,40.4427563,-79.9564623,2016-11-11T15:46:51.936Z,2016-11-11T15:46:51.936Z,0,0,US,False,26345,True
27768,University of Pittsburgh Graduate School of Public Health ,130 Desoto St,Pittsburgh ,Pa,True,True,On the first floor in the commons area,Labeled family bathroom ,40.4428588,-79.9584169,2017-01-25T03:33:32.795Z,2017-01-25T03:33:32.795Z,0,1,US,False,27768,True
39876,Pittsburgh Glass Center,5472 Penn Ave,Pittsburgh,PA,True,True,,2 all-gender restrooms upstairs (elevator accessible),40.4640804,-79.9328829,2018-02-10T20:16:58.856Z,2018-02-10T20:16:58.856Z,0,0,US,False,39876,True
46751,Pittsburgh International Airport,1000 Airport Blvd,Pittsburgh,PA,True,True,"Concourse C or D, just before the moving walkway.",,40.4957329,-80.245584,2019-01-02T15:14:46.818Z,2019-01-02T15:14:46.960Z,0,0,US,True,46751,True
47232,Carnegie Library of Pittsburgh - West End,47 Wabash St,Pittsburgh,Pennsylvania,True,True,"One restroom upstairs is single stall, not accessible to wheelchair users. One restroom downstairs in the basement is single stall, accessible to wheelchair users, and available for use if you ask at the Circulation Desk on the main floor. ",All the librarians are helpful and inclusive!,40.4400663,-80.0340622,2019-01-31T22:12:14.956Z,2019-01-31T22:12:15.076Z,0,0,US,True,47232,True
48129,Pittsburgh Action Against Rape,81 south 19ths st,Pittsburgh ,Pa,True,True,,"Accessible only to clients, volunteers, and staff. ",40.4290575,-79.9788413,2019-03-14T15:38:22.926Z,2019-03-14T15:38:22.976Z,0,0,US,True,48129,True
45359,Giovanni’s Pizza,123 6th St,Pittsburgh ,PA,True,True,Back of the store past checkout counter to the right — before kitchen. ,"Have a friend watch the door as the lock sometimes doesn’t work as well. also make sure you grab a slice of pizza on the way out, as it’s the best pizza in Pittsburgh! ",40.4434994,-80.002255,2018-10-23T23:42:09.221Z,2020-04-14T21:34:03.492Z,0,1,US,False,45359,True
35028,Galleria Edina,France Ave S & 69th Street,Edina,MN,True,False,Enter by Pittsburgh Blue. (There are probably others throughout the mall.),Multi-stall gendered bathrooms but also single stall family bathrooms. ,44.878071,-93.3290902,2017-05-13T14:02:11.753Z,2017-05-13T14:02:11.753Z,0,0,US,False,35028,True
49263,Olive Garden,1010 Pittsburgh Mills Blvd,Tarentum,PA,True,True,,,40.570093,-79.7985959,2019-04-19T15:32:14.133Z,2019-04-19T15:32:14.157Z,0,0,US,False,49263,True
56782,Major Stokes Restaurant,108 W Pittsburgh St,Greensburg,PA,True,True,In the back,Gendered single stalls with signs encouraging any gender,40.3019096,-79.5459805,2020-11-04T17:55:48.459Z,2020-11-04T17:55:48.568Z,0,0,US,False,56782,True
191,Carnegie Mellon University,5000 Forbes Ave.,PITTSBURGH,PA,True,True,Family or unisex bathrooms,Will be included in all new construction and have been added to most other buildings.,40.4438659,-79.9420422,2014-02-02T20:49:18.963Z,2014-02-02T20:49:18.963Z,1,0,US,False,191,True
438,"Gates Hillman Center, Carnegie Mellon University",4902 Forbes Avenue,Pittsburgh,PA,True,True,"On the Hillman side of the building, there is a single-seat, unisex restroom two doors down from room 4401.  If you're coming in from the street, turn left when you get to the glass windows, and then left again when you get to the door to 4401.  The bathroom is on your right.","When the building was built, there was no official sign next to the bathroom, but it had a printed paper sign that said \""Men/Women Restroom\"" on it.",40.443505,-79.945227,2014-02-02T20:49:37.250Z,2014-02-02T20:49:37.250Z,1,1,US,False,438,True
1546,Quiznos,300 South Craig St,Pittsburgh,PA,True,False,"Past the counter, in the back.",,40.445777,-79.948895,2014-02-02T20:51:13.797Z,2014-02-02T20:51:13.797Z,1,0,US,False,1546,True
1629,Monroeville Mall,Business Route 22,Pittsburgh,PA,False,False,The top floor on the side where the Mr. Roger's Neighborhood playground is. There may be more in the other bathroom areas as well.,"It's marked as a \""family\"" restroom, but I don't see how this really matters.",40.428687,-79.938645,2014-02-02T20:51:21.641Z,2014-02-02T20:51:21.641Z,1,0,US,False,1629,True
1744,Hoi Polloi,1100 Galveston Ave.,Pittsburgh,PA,False,True,In cafe to left of counter.,,40.453668,-80.01689,2014-02-02T20:51:30.819Z,2014-02-02T20:51:30.819Z,1,0,US,False,1744,True
1745,Mall at Robinson,100 Robinson Center Dr,Pittsburgh,PA,True,True,"In the food court bathroom area.  'Family room' says only for people with kids, but I have walked in before.",,40.4537913,-80.1571623,2014-02-02T20:51:30.934Z,2014-02-11T03:42:16.363Z,2,0,US,False,1745,True
1753,Allegheny County Health Department,3901 Penn Ave,Pittsburgh,PA,False,True,Walk in the back door of Building 1.  Take the elevator or the stairs to the third floor.  Turn right the top of the stairs.  The bathroom is on your right.  ,Open 8am to 5pm.  The bathroom has a men sign and a women sign on it but one of the signs falls down frequently.  The stall doors don't work so lock the main door to the bathroom.  ,40.4655259,-79.9595949,2014-02-02T20:51:31.612Z,2014-02-11T03:43:38.386Z,2,0,US,False,1753,True
1754,Chatham College,Woodland Rd.,Pittsburgh,PA,True,True,"In the Falk section of Braun-Falk-Coolidge on the first floor.  There is also one in the basement.Also: In the basement of the Mellon house, andon the first floor of the Art & Design Center.",,40.449932,-79.923178,2014-02-02T20:51:31.661Z,2014-04-13T01:25:50.847Z,1,0,US,False,1754,True
1762,Square Cafe,1137 south braddock avenue,Pittsburgh,PA,False,True,"When you walk in, the to-go counter is on your left. Pass the counter, keep walking towards the back into the small hallway & the bathrooms are on your left.The bathrooms are now NEUTRAL!!! Please thank some of the employees who pushed for this!","It's a cute queer-owned neighborhood cafe & breakfast favorite.  The bathrooms even have cute chalk boards if you want to leave a message.Hours:Monday-Saturday 7am-3pmSunday 8am-3pmt 412.244.8002",40.4318854,-79.8933384,2014-02-02T20:51:32.461Z,2014-04-13T01:25:52.664Z,1,4,US,False,1762,True
2000,East Carson Street,East Carson Street,Pittsburgh,PA,True,False,Near parking area,Must pay to pee. Open 24 hours. 20 minute maximum.,40.428865,-79.983144,2014-02-02T20:51:51.360Z,2014-02-02T20:51:51.360Z,1,0,US,False,2000,True
2057,Coffee Tree Roasters,5840 Forbes Avenue,Pittsburgh,PA,True,False,Straight back past the counter,"Queer friendly area, baristas are generally queer/queer friendly.",40.4380326,-79.9214815,2014-02-02T20:51:56.283Z,2014-02-02T20:51:56.283Z,1,0,US,False,2057,True
2059,61C Cafe,1839 Murray Ave,Pittsburgh,PA,False,True,"in the back of the coffee shop, 2 unisex, single stall bathrooms.","nice place to read a book, too.",40.4361653,-79.9227617,2014-02-02T20:51:56.513Z,2014-02-02T20:51:56.513Z,1,1,US,False,2059,True
2123,"University Center, Carnegie Mellon University",5034 Forbes Avenue,Pittsburgh,PA,True,True,"In the basement, there are two unisex, single-seat restrooms in the foyer to the Prayer Room.  Follow the signs for the prayer room and you'll see them on your left.",,40.4444998,-79.942265,2014-02-02T20:52:02.283Z,2014-02-02T20:52:02.283Z,1,1,US,False,2123,True
2128,Hookah Bookah Cafe,2506 E. Carson St.,Pittsburgh,PA,False,False,"Two locking bathrooms on the left: women's near the middle, men's by the counter.",,40.42749,-79.969565,2014-02-02T20:52:03.056Z,2014-02-02T20:52:03.056Z,1,0,US,False,2128,True
2204,Oh Yeah!,232 S. Highland Ave,Pittsburgh,PA,False,True,Go to the back of the shop and turn around; you'll see a mirrored door with a restroom sign next to it.,Really cool ice cream with over 100 mix-ins.,40.458008,-79.925317,2014-02-02T20:52:09.230Z,2014-02-02T20:52:09.230Z,1,0,US,False,2204,True
2365,Chipotle Mexican Grill,3619 Forbes Ave,Pittsburgh,PA,False,False,in the back of store behind a door marked bathrooms.,"since the entrance to the bathrooms is behind a door, which bathroom you go in is private.",40.440803,-79.958272,2014-02-02T20:52:21.698Z,2014-02-02T20:52:21.698Z,1,1,US,False,2365,True
2911,Mudge House,1000 Morewood Ave,Pittsburgh,PA,False,True,"Go straight into Mudge House. After checking in with the desk attendant in the vestibule, turn right until you reach the staircase, then turn left past the staircase. The bathroom is between the vending machine and the exit to B-tower.",You must show a Carnegie Mellon student ID to access the building. The bathroom has a condom machine which dispenses one condom for 75 cents.,40.447343,-79.94242,2014-02-02T20:53:11.826Z,2014-02-02T20:53:11.826Z,1,0,US,False,2911,True
2970,Coca Cafe,3811 Butler St,Pittsburgh,PA,False,True,"Front room, on the left.",,40.4670725,-79.9641251,2014-02-02T20:53:18.657Z,2014-02-02T20:53:18.657Z,1,0,US,False,2970,True
3016,JcPenney - Mall at Robinson,100 Robinson Drive,Pittsburgh,PA,True,False,,,40.325111,-79.955104,2014-02-02T20:53:24.656Z,2014-02-02T20:53:24.656Z,1,0,US,False,3016,True
3105,Cinemark Theater,2100 Settlers Ridge Center ,Pittsburgh,PA,True,True,Family single stall bathrooms near the theaters; there is a fee to enter.,,40.4400312,-80.1494184,2014-02-02T20:53:31.976Z,2014-02-11T03:41:45.853Z,2,0,US,False,3105,True
3472,Duquesne University,600 Forbes Ave,Pittsburgh,PA,True,True,Zip is 15282. The one I know if is 2nd floor in Canevin Hall but there may be others on campus.,It makes me so proud of my university. It's a Catholic school with gender neutral bathrooms. AWESOME!,40.438056,-79.993881,2014-02-02T20:54:03.568Z,2014-02-02T20:54:03.568Z,1,0,US,False,3472,True
3489,Red Oak Cafe,3610 Forbes Avenue 15213,Pittsburgh,PA,False,True,"It is in the back, their only restroom.","Not only is the restroom accommodating but they have some awesome, local food. Carnivore, omnivore, herbivore... they have food for anyone including gluten free.",40.440664,-79.958189,2014-02-02T20:54:05.298Z,2014-02-02T20:54:05.298Z,1,0,US,False,3489,True
4513,Bellefield Hall,315 S Bellefield Ave,Pittsburgh,PA,True,True,"Second floor has two unisex restrooms on the north side, near the weight room. 

One is a former men's room, and is still frequently used by male students to change for the gym. The other is the accessible locker room next door; go through the locker room into the bathroom, which is a single-toilet + shower.  Both are lockable.","Bellefield Hall requires Pitt ID for 'recreational use', but classes, purchasing software from the Student Software Sales office, and visiting offices are exempt.  Offices in the building include  University Times, CSSD administration, campus YMCA, and Army ROTC.",40.445412,-79.950845,2014-02-04T22:19:46.045Z,2014-02-05T00:26:16.377Z,2,2,USA,False,4513,True
4557,Rickert & Beagle Books,3233 West Liberty Ave,Pittsburgh,PA,True,True,"In the front door and straight back, it's a tiny space so the bathroom is easy to find.",I am posting this as the owner of the store. If you need access to my bathroom come in and use my bathroom!,40.389867,-80.040763,2014-02-05T19:53:46.512Z,2014-02-05T19:53:46.512Z,1,71,USA,False,4557,True
15885,The Mr. Roboto Project,5106 Penn Ave,Pittsburgh,Pennsylvania,True,True,,"This venue is closed unless there is a show or meeting and is not open to the public. The restrooms are separated by ""restroom with a urinal"" and ""two stall restroom"". ",40.464652,-79.942515,2015-01-08T20:04:49.064Z,2015-01-08T20:04:49.064Z,0,1,United States,False,15885,True
16204,Assemble,5125 Penn Avenue,Pittsburgh,PA,False,True,Back behind the curtain. Ask any staff person and they'll point it out. ,"Technically in a ""non-public"" part of the space but everyone is allowed to use it! ",40.4650439,-79.9417735,2015-03-05T15:48:13.951Z,2015-03-05T15:48:13.951Z,0,1,US,False,16204,True
16218,Biddle's Escape,401 Biddle Ave,Pittsburgh,PA,True,True,"Enter, walk past the counter and they're to the right, before the wall with tshirts on it","Two single-person bathrooms, neither one is gendered. Always super clean! ",40.4381463,-79.8921011,2015-03-06T04:08:15.421Z,2015-03-06T04:08:15.421Z,0,2,US,False,16218,True
16219,Eat Unique,305 S Craig Street,Pittsburgh,PA,False,True,"It's outside the dining space. Go through the door by the drink coolers, and it's to the right","Single person bathroom. Technically owned by Eat Unique, though the next door restaurant also uses it",40.4455986,-79.948615,2015-03-06T04:13:06.711Z,2015-03-06T04:13:06.711Z,0,1,US,False,16219,True
16540,Coffee Buddha,964 Perry Highway,Pittsburgh ,PA,True,True,,,40.5370432,-80.0357635,2015-03-11T01:36:18.358Z,2015-03-11T01:36:18.358Z,0,1,US,False,16540,True
16542,Row House Cinema,4115 Butler Street,Pittsburgh,PA,True,False,,,40.470045,-79.96115,2015-03-11T01:43:58.503Z,2015-03-11T01:43:58.503Z,0,4,US,False,16542,True
16620,Dunkin' Donuts,5889 Forbes Ave,Pittsburgh,Pa,False,True,,You probably have to buy something to use it.  ,40.438269,-79.919622,2015-03-14T01:35:32.876Z,2015-03-14T01:35:32.876Z,0,0,US,False,16620,True
16621,Dunkin' Donuts,3907 Forbes Ave,Pittsburgh ,PA,False,True,,,40.4422132,-79.956375,2015-03-14T01:37:09.678Z,2015-03-14T01:37:09.678Z,0,1,US,False,16621,True
16622,Pitt School of Nursing,3500 Victoria St. ,Pittsburgh ,Pa,False,True,Go up to the first floor. It's under the escalators on the first floor lobby. ,,40.4418216,-79.9602943,2015-03-14T01:39:02.219Z,2015-03-14T01:39:02.219Z,0,0,US,False,16622,True
16802,Constellation Coffee,4059 penn ave.,Pittsburgh ,Pa,False,True,,,40.4658008,-79.9557769,2015-03-20T03:00:17.021Z,2015-03-20T03:00:17.021Z,0,4,US,False,16802,True
17758,Victory Pointe,1113 East Carson St,Pittsburgh,Pennsylvania,False,True,Gendered multi-stall restrooms first floor. Gender Neutral single-stall restroom on second floor in the back and to the left.,Trans-positive business.,40.428945,-79.986894,2015-06-15T19:35:13.631Z,2015-06-15T19:35:13.631Z,0,1,US,False,17758,True
18364,Brew on Broadway,1557 Broadway avenue,Pittsburgh,PA,True,True,"first floor, just past the place where the baristas stand, ask for the bathroom and they will point you to it","it would be nice to buy something, but not required. they are a non-profit and have low prices and great drinks and snacks and everyone is very nice.",40.4106948,-80.0244163,2015-08-13T20:34:11.038Z,2015-08-13T20:34:11.038Z,0,1,US,False,18364,True
18492,Assemble,5125 Penn Ave,Pittsburgh,PA,False,True,In the back middle part of the building--the second room after the big gallery room,Assemble doesn't have regular business hours but is open for gallery nights on Penn Ave,40.4650439,-79.9417735,2015-08-26T18:25:47.427Z,2015-08-26T18:25:47.427Z,0,0,US,False,18492,True
19476,Our home,8 Jarvis Ct ,Pittsburgh,Pa,False,False,"Upstairs, first door.","Just knock or ring the doorbell. If we're home, you are welcome. We have a dog, all bark, no bite. Loves people once they are threw the door.",40.5160242,-80.0027467,2015-11-30T22:26:34.612Z,2015-11-30T22:26:34.612Z,0,0,US,False,19476,True
19986,Crazy Mocha,2100 Murray Ave 15217,Pittsburgh,Pennsylvania,False,True,It's to the left of the counters. ,You should probably buy something,40.4335226,-79.9232689,2016-01-28T00:54:04.852Z,2016-01-28T00:54:04.852Z,0,0,US,False,19986,True
19987,Italian Village Pizza,5886 Forbes Ave 15217,Pittsburgh,Pennsylvania,False,True,By the back,"You should buy something, the pizzas pretty cheap anyway",40.4379074,-79.9195552,2016-01-28T00:57:59.825Z,2016-01-28T00:57:59.825Z,0,0,US,False,19987,True
21214,Commonplace Coffeehouse,1501 Buena Vista Street,Pittsburgh,PA,False,True,Next to the counter to the right. ,"Most likely need to buy something. Good coffee and pastries here, friendly staff.  Bathroom also has a baby changing table. ",40.4570343,-80.0148185,2016-04-07T21:50:46.969Z,2016-04-07T21:50:46.969Z,0,0,US,False,21214,True
21316,Brueggers Bagels,5151-5175 Clairton Blvd,Pittsburgh,Pennsylvania,True,False,"Straight back from the door, to the left of the checkout counter. ","Restrooms are gendered, but single-stall and fairly isolated visually from the rest of the restaurant. ",40.3440439,-79.9715457,2016-04-12T18:22:24.331Z,2016-04-12T18:22:24.331Z,0,0,US,False,21316,True
21666,Zeke's Coffee,6015 Penn Ave.,Pittsburgh,PA,False,True,In the back (walk straight through),Two single-stall gender neutral restrooms; the one on the right has a urinal.,40.461506,-79.923991,2016-04-27T02:21:44.765Z,2016-04-27T02:21:44.765Z,0,1,US,False,21666,True
21670,Mineo's Pizza House,2128 Murray Ave,Pittsburgh,PA,True,True,In the back on the right side,"1. There are gendered restrooms on the left part of the venue, but on the right side there's one gender ~neutral stall.
2. Accessibility depends on which door you enter on",40.4328561,-79.9232546,2016-04-27T04:17:30.556Z,2016-04-27T04:17:30.556Z,0,0,US,False,21670,True
21843,Cattivo,146 44th St.,Pittsburgh,PA,True,True,,,40.472511,-79.9616957,2016-05-04T01:34:04.481Z,2020-04-14T21:13:47.703Z,0,1,US,False,21843,True
22232,Mixtape,4907 Penn Avenue,Pittsburgh,PA,True,True,All five restrooms in this boozy coffeehouse / bar are single occupant-gender inclusive. There is one accessible restroom upstairs and 4 more down the front stairs.,,40.4654736,-79.944844,2016-05-22T18:37:51.520Z,2016-05-22T18:37:51.520Z,0,2,US,False,22232,True
22247,Thomas Merton Center,5129 Penn Ave,Pittsburgh,PA,True,True,,,40.465029,-79.9417113,2016-05-23T14:18:35.689Z,2016-05-23T14:18:35.689Z,0,0,US,False,22247,True
22248,Los Sabrosos Dance Co.,4909 Penn Ave,Pittsburgh,PA,True,True,Both bathrooms in the back of the dance studio are unisex and welcome to all. ,come take a lesson or stay for a dance night! ,40.465457,-79.9447866,2016-05-23T14:46:51.553Z,2016-05-23T14:46:51.553Z,0,0,US,False,22248,True
22252,BOOM Concepts,5139 Penn Ave,Pittsburgh,PA,True,False,"Our bathroom is accessible, but we do not always have the ramp at our front door to make the main entrance to the building wheel-chair accessible.",,40.4650048,-79.9413433,2016-05-23T17:37:31.660Z,2016-05-23T17:37:31.660Z,0,1,US,False,22252,True
22483,The Grable Visitor Center,7227 Reynolds Street,Pittsburgh,PA,True,True,Park in the Frick Museum parking lot and walk through the gate at the back of the lot. The Grable Visitor Center will be on your left.,Staff completely indifferent.,40.446587,-79.902277,2016-06-04T20:26:56.154Z,2016-06-04T20:26:56.154Z,0,0,US,False,22483,True
23502,Biddle's Escape,401 Biddle Ave,Pittsburgh,Pennsylvania,True,True,To the left of the counter.,,40.4381505,-79.8921186,2016-06-23T00:30:37.151Z,2016-06-23T00:30:37.151Z,0,0,US,False,23502,True
24489,Nicky's Thai Kitchen,856 Western Ave,Pittsburgh ,PA,False,True,To the left of the counter,Single stall unisex for customers. Great food!,40.4521806,-80.0162337,2016-08-02T22:08:39.741Z,2016-08-02T22:08:39.741Z,0,0,US,False,24489,True
24503,Carlow University,3333 Fifth Ave,Pittsburgh ,PA,True,True,"Main level of the University Commons, by women's restrooms","Monday-Thursday 8am-midnight
Friday 8am-9pm
Saturday 8am-4pm
Sunday 12:30pm-4:30pm
Students have 24/7 access with ID",40.4389799,-79.9630746,2016-08-03T01:25:58.644Z,2016-08-03T01:25:58.644Z,0,0,US,False,24503,True
24718,Chatham university: cafe Rachel ,1 woodland rd,Pittsburgh ,Pennsylvania ,True,False,,One gender-neutral single stall and one gendered women's bathroom (not single stall). ,40.4512757,-79.9254912,2016-08-15T05:33:39.805Z,2016-08-15T05:33:39.805Z,0,3,US,False,24718,True
27558,Point Park University- Academic Hall,201 Wood Street,Pittsburgh,PA,False,True,"First floor, across from the elevators (behind glass wall)","Need Point Park ID to get into building, but good for students/educators!",40.438497,-80.001276,2017-01-21T02:53:00.025Z,2017-01-21T02:53:00.025Z,0,1,US,False,27558,True
28612,Mercurio's,5523 Walnut Street ,Pittsburgh ,Pennsylvania ,False,True,in the back ,,40.4515766,-79.9328425,2017-02-24T15:40:18.036Z,2017-02-24T15:40:18.036Z,0,1,US,False,28612,True
28887,Cinemark McCandless Crossing,851 Providence Blvd,Pittsburgh,PA,True,True,,You have to be a paying customer.,40.5705042,-80.0196744,2017-02-24T21:27:48.761Z,2017-02-24T21:27:48.761Z,0,0,US,False,28887,True
29072,Chatham University,1 Woodland Rd,Pittsburgh,Pennsylvania,True,True,"There are gender neutral / unisex bathrooms in most of the buildings. To get to the ones in the dorms, you need a student card. To the more public areas, there is the Anderson dining hall and Carriage House. The dining hall one is on the upper floor near the entrance of the cafeteria and is sort of wheelchair accessible. If you come from the main road then the entrance is right there. But if you come from down the hill and the dorms then you have to go up another hill leading to the side of the hall and the back of the AFC to get to the main road entrance. The Carriage House is in the same area as the other bathrooms and is wheelchair accessible.",Some dorms and areas need a student ID card to access. ,40.4513117,-79.9254983,2017-02-25T01:27:09.673Z,2017-02-25T01:27:09.673Z,0,0,US,False,29072,True
29074,Eden Hall Campus ,6035 Ridge Road Richland Township,Pittsburgh,Pennsylvania,True,True,"It's on the bottom floor which should be accessible by the elevator. It may need a key card of some kind though, so maybe ask a nearby student or employee.",I have never personally used the elevator. The door may be a bit hard to open at times because it is heavy. The bathroom is a single stall and has handle bars near the toilet.,40.6637753,-79.9558969,2017-02-25T01:33:00.766Z,2017-02-25T01:33:00.766Z,0,0,US,False,29074,True
30052,Benedum Hall,3700 O'Hara St,Pittsburgh,PA,True,True,Ground floor back hallway on North Bouquet Street side,Building normally unlocked to public,40.4438045,-79.958412,2017-02-26T00:51:30.729Z,2017-02-26T00:51:30.729Z,0,0,US,False,30052,True
30055,Hillman Library,3960 Forbes Ave #271,Pittsburgh,PA,True,True,Ground floor near back left,"Open to public. Typically opens at 10 a.m. Sunday, 24 hours Monday-Thursday, Open until 10 p.m. Friday, Open 9 a.m. to 10 p.m. on Saturday, but varies for holidays and Summer.",40.4428889,-79.954634,2017-02-26T00:55:56.950Z,2017-02-26T00:55:56.950Z,0,0,US,False,30055,True
30221,Union trust building,501 grant street,Pittsburgh,Pwnnsylvania,False,True,"Second floor, visible across from elevators and also next to the giant glass doors",You have to enter through the side entrance I think on fifth street,40.4399628,-79.9969732,2017-02-26T04:44:17.322Z,2017-02-26T04:44:17.322Z,0,0,US,False,30221,True
30224,Union trust building,501 grant street,Pittsburgh,Pennsylvania,True,True,Second floor across from elevators also next to giant glass doors,Ignore the sign saying no access on the stairs. Only entrance is from the side.,40.4399628,-79.9969732,2017-02-26T04:45:57.833Z,2017-02-26T04:45:57.833Z,0,0,US,False,30224,True
30810,The ToonSeum,945 Liberty Ave,Pittsburgh,PA,True,True,In back of Main Gallery,"Restrooms are for paying customers, although we have a donation jar out and if you put anything in it and ask to use the restroom you should be good to go. The ToonSeum is a comic and cartoon art museum for EVERYONE.",40.443581,-79.9965209,2017-02-26T21:27:03.933Z,2017-02-26T21:27:03.933Z,0,0,US,False,30810,True
31244,Point Park University Student Center,201 Wood St,Pittsburgh ,PA,True,True,Second floor near the windows facing Boulevard of the Allies,Front doors are unlocked by student ID key card access,40.438497,-80.001276,2017-02-27T06:32:44.151Z,2017-02-27T06:32:44.151Z,0,0,US,False,31244,True
31719,Cornerstone Restaurant and Bar,"301 Freeport Rd, Aspinwall, PA 15215",Pittsburgh,PA,True,True,"Right near the bar almost in the middle of the place, but as far back as they could place it. There are two men/women bathrooms and no bathrooms just for one gender.",I'm not sure if you need to pay to use it or not but everyone there is friendly.,40.489564,-79.9032766,2017-02-27T22:52:30.113Z,2017-02-27T22:52:30.113Z,0,0,US,False,31719,True
32477,Target East Liberty,6321 Penn Avenue,Pittsburgh,PA,True,False,Family restroom located near the other restrooms at the end of the registers.,,40.4591474,-79.9198076,2017-03-01T18:20:38.010Z,2017-03-01T18:20:38.010Z,0,2,US,False,32477,True
32544,The Cheesecake Factory,1000 Ross Park Mall Drive,Pittsburgh,Pa,True,True,,They have both gendered restrooms as well as a third unisex/handicapped accessible room.,40.5389691,-80.0077114,2017-03-01T21:08:13.156Z,2017-03-01T21:08:13.156Z,0,1,US,False,32544,True
32776,Western Pennsylvania Humane Society,1101 Western Ave. ,Pittsburgh,PA,True,True,"First floor - when you enter the shelter from the main entrance, walk past the front desk towards the dog kennel and cat room. ",,40.4510443,-80.0198917,2017-03-02T16:31:21.392Z,2017-03-02T16:31:21.392Z,0,0,US,False,32776,True
32845,Dunkin Donuts ,28 Market Square ,Pittsburgh ,Pa,True,False,,"Ask for the code at the counter.  For customers only, but often times they don't enforce the policy ",40.4409683,-80.0030663,2017-03-02T20:11:33.156Z,2017-03-02T20:11:33.156Z,0,0,US,False,32845,True
33000,Allegheny county department of human services,1 smithfield st,Pittsburgh,Pa,False,True,,,40.4371058,-80.0010221,2017-03-03T13:27:27.398Z,2017-03-03T13:27:27.398Z,0,1,US,False,33000,True
33151,Eat Unique,305 S Craig St,Pittsburgh,PA,False,True,Through the store to the very back (kind of under the stairs).,Probably need to be a paying customer though they don't require a code. ,40.4456076,-79.9485637,2017-03-27T21:13:35.199Z,2017-03-27T21:13:35.199Z,0,0,US,False,33151,True
33275,Zeke's Coffee,6015 Penn Ave,Pittsburgh,Pennsylvania,True,True,,,40.461506,-79.923991,2017-03-30T01:07:42.810Z,2017-03-30T01:07:42.810Z,0,0,US,False,33275,True
33299,Over the bar,2518 e Carson st,Pittsburgh,Pa,False,False,Back of the bar,,40.4274008,-79.9690681,2017-03-30T17:13:01.192Z,2017-03-30T17:13:01.192Z,0,0,US,False,33299,True
33431,Red Robin,"Settlers Ridge, 1230 Settlers Ridge Center Dr",PITTSBURGH,Pa,True,True,Straight back to the right when you entee,Family unisex restroom,40.440268,-80.1490402,2017-04-01T16:39:20.591Z,2017-04-01T16:39:20.591Z,0,0,US,False,33431,True
33516,"Waffles, incaffeinated",2517 e Carson st,Pittsburgh,Pa,True,False,,Paying customers only,40.4278494,-79.9692986,2017-04-02T14:34:35.483Z,2017-04-02T14:34:35.483Z,0,0,US,False,33516,True
33544,Dancing gnome,925 main street,Pittsburgh,Pa,True,False,"In the back, near the exit sign","For ""paying customers""",40.494387,-79.932685,2017-04-02T21:31:23.951Z,2017-04-02T21:31:23.951Z,0,0,US,False,33544,True
33627,Independent brewing company,1704 shady ave,Pittsburgh,Pa,True,False,In the back,You have to be a paying customer,40.4376813,-79.9195192,2017-04-04T23:13:03.901Z,2017-04-04T23:13:03.901Z,0,0,US,False,33627,True
34232,Artisan Tattoo and Coffee,5001 Penn ave,Pittsburgh,Pa,True,True,,,40.4653383,-79.9438735,2017-04-17T19:56:28.777Z,2017-04-17T19:56:28.777Z,0,1,US,False,34232,True
34233,Artisan Tattoo and Coffee,5001 Penn ave,Pittsburgh,Pa,True,True,,,40.4653383,-79.9438735,2017-04-17T19:56:29.082Z,2017-04-17T19:56:29.082Z,0,0,US,False,34233,True
34234,Artisan Tattoo and Coffee,5001 Penn ave,Pittsburgh,Pa,True,True,,,40.4653383,-79.9438735,2017-04-17T19:56:30.147Z,2017-04-17T19:56:30.147Z,0,0,US,False,34234,True
34235,Artisan Tattoo and Coffee,5001 Penn ave,Pittsburgh,Pa,True,True,,,40.4653383,-79.9438735,2017-04-17T19:56:31.730Z,2017-04-17T19:56:31.730Z,0,2,US,False,34235,True
34260,Whitfield Hall,143 N Craig St,Pittsburgh ,PA,False,False,Building entrance at porch around back. Downstairs to the right of the stairs. I was in the women's bathroom and it had extra pads and tampons. ,"Probably need to be in hall for a reason, though might be able to stop and ask to use the restroom. ",40.4484072,-79.9502015,2017-04-18T14:10:03.239Z,2017-04-18T14:10:03.239Z,0,0,US,False,34260,True
34598,Beechwood Farms Nature Reserve,614 Dorseyville Road,Pittsburgh,Pa,False,False,Located in gift shop towards back.,,40.5426537,-79.9058911,2017-04-27T12:29:41.893Z,2017-04-27T12:29:41.893Z,0,1,US,False,34598,True
34599,Nordstroms-Ross Park Mall,Ross Park Drive,Pittsburgh,Pa,False,False,Single family bathroom on 2nd floor,,40.5418406,-80.0175671,2017-04-27T12:32:13.602Z,2017-04-27T12:32:13.602Z,0,0,US,False,34599,True
35022,Starbucks,417 S. Craig St,Pittsburgh,PA,True,False,,,40.444714,-79.9485725,2017-05-13T02:07:59.977Z,2017-05-13T02:07:59.977Z,0,0,US,False,35022,True
35023,Cafe D'Amour/Nine Stories,5400 Butler St,Pittsburgh,PA,False,True,,,40.4828046,-79.950935,2017-05-13T02:09:34.148Z,2017-05-13T02:09:34.148Z,0,0,US,False,35023,True
35024,Planned Parenthood,933 Liberty Ave,Pittsburgh,PA,True,True,,Available for health center patients.,40.4434897,-79.9968471,2017-05-13T02:10:54.836Z,2017-05-13T02:10:54.836Z,0,0,US,False,35024,True
35585,East Liberty Presbyterian Church ,116 Highland Avenue,Pittsburgh ,Pa,False,False,"All the RR have signs indicating that ELPC welcomes gender diversity. Please feel free to use the RR that fits your gender identity or expression. 

Men's is to the right and women's straight ahead. ",There is a table to sign in at when you come in. It is a safe and welcoming space based on what I have seen. ,40.4610063,-79.925589,2017-06-08T04:01:49.337Z,2017-06-08T04:01:49.337Z,0,0,US,False,35585,True
36831,Ace Hotel,120 s whitfield,pittsburgh,PA,True,True,basement with elevator access,,40.4613153,-79.9263448,2017-08-05T22:36:59.781Z,2017-08-05T22:36:59.781Z,0,0,,False,36831,True
36832,Ace Hotel,120 s whitfield,pittsburgh,Pennsylvania,True,True,"basement, with elevator access",,40.4613153,-79.9263448,2017-08-05T22:51:06.793Z,2017-08-05T22:51:06.793Z,0,0,US,False,36832,True
36835,Ace Hotel,120 s whitfield,pittsburgh,PA,True,True,basement with elevator access,,40.4613153,-79.9263448,2017-08-06T04:11:33.282Z,2017-08-06T04:11:33.282Z,0,1,US,False,36835,True
37163,Eat n Park,2874 West Liberty Avenue,Pittsburgh,Pennsylvania,True,True,"upon entering, turn left and walk as far that way as possible, then right and you will see it there.","in my experience, they let me in without buying anything. however, i'm also a regular so i'm not sure about others. -g.avery",40.3957707,-80.0335757,2017-08-25T11:26:28.432Z,2017-08-25T11:26:28.432Z,0,4,US,True,37163,True
37790,Trader Joe's,6343 Penn Ave,Pittsburgh,Pennsylvania,True,True,Back left corner of the store,,40.4592022,-79.9192567,2017-09-19T19:38:07.693Z,2017-09-19T19:38:07.693Z,0,1,US,True,37790,True
37918,Tazza d'oro ,524 grant ave. Zip 15209,Pittsburgh,Pa ,True,True,,,40.4810224,-79.9747074,2017-09-26T16:47:28.362Z,2017-09-26T16:47:28.362Z,0,0,US,False,37918,True
38921,ikea,2001 Park Manor Blvd,pittsburgh,pa,True,False,"top floor, behind food counter down a long hallway is a family restroom!",usable as long as you're shopping at ikea!,40.4517367,-80.1681502,2017-12-05T18:57:23.827Z,2020-04-14T21:19:01.611Z,0,0,US,True,38921,True
39870,Ppg Paints Arena,1001 fifth avenue,Pittsburgh,Pennsylvania,False,False,Family bathrooms are all over the place near the food stands and bars,,40.4393097,-79.9895529,2018-02-10T06:31:28.481Z,2018-02-10T06:31:28.481Z,0,0,US,False,39870,True
40357,Texas Roadhouse,Duncan Avenue,Pittsburgh ,Pennsylvania ,True,True,In back corner of restaurant by women’s restroom. Past the bar. ,It is a “family restroom.”,40.5672737,-80.0124537,2018-03-11T21:51:32.368Z,2018-03-11T21:51:32.368Z,0,0,US,True,40357,True
40498,"Purnell Center for the Arts, Carnegie Mellon campus",5000 Forbes ,Pittsburgh,Pennsylvania,True,True,All floors have single use accessible restrooms.,,40.4406248,-79.9958864,2018-03-20T20:17:00.202Z,2018-03-20T20:17:00.202Z,0,0,US,False,40498,True
40662,Gap,Walnut St,Pittsburgh,PA,True,True,Go downstairs or down the elevator to the Gap Kids department,Just ask the cashier if they have a restroom and they can let you in with their key. Keep in mind that this is in a kids department and kids are weird sometimes. There are two single stall restrooms and both are unmarked,40.4534265,-79.9271049,2018-03-31T18:10:41.362Z,2018-03-31T18:10:41.362Z,0,1,US,False,40662,True
40974,Starbucks,7 Market Square,Pittsburgh,PA,True,False,2 single stalls in the back left. Door code is 0100,,40.4402122,-80.0021785,2018-04-16T01:22:36.619Z,2018-04-16T01:22:36.619Z,0,0,US,False,40974,True
42216,Grant street transportation center,55 11th street,Pittsburgh,Pennsylvania ,True,True,Between the male and female restrooms and across bus door number 9.,Not always open or locked often. ,40.4447597,-79.9933102,2018-07-03T23:26:56.309Z,2018-07-03T23:26:56.309Z,0,0,US,True,42216,True
42362,PERSAD Center (aka Equality Center),Butler St,Pittsburgh ,Pa,False,False,,LGBT-centered company. Has a neutral bathroom in lobby. Just ask the person at the front desk. ,40.4851642,-79.9462964,2018-07-14T05:37:50.688Z,2018-07-14T05:37:50.688Z,0,1,US,False,42362,True
42659,Piada Italian Street Food,3600 Forbes,Pittsburgh,Pennsylvania,True,False,There’s a ramp that says “bathrooms” over it on the left side of the restaurant. Family bathroom is the first door.,,40.440536,-79.957918,2018-07-30T03:10:46.909Z,2018-07-30T03:10:46.909Z,0,0,US,True,42659,True
43655,61B Cafe,1108 S Braddock Ave,Pittsburgh,PA,True,False,"Ground floor, back, left. ",,40.4323962,-79.8939493,2018-09-11T02:42:11.138Z,2018-09-11T02:42:11.138Z,0,0,US,False,43655,True
44599,Cathedral of Learning,4200 Fifth Avenue,Pittsburgh,PA,True,False,"G-2 -- on the ground floor, so if you are on the floor with the main hall, go down one floor to G (any stairwell or elevator). follow signs to copy center/mail. Signed as ""family/inclusive restroom"".",Accessible. Open to the public during the day. University ID required after around 11pm.,40.44439,-79.9534133,2018-09-23T17:51:56.767Z,2020-04-14T21:29:10.310Z,0,0,US,True,44599,True
44703,Artisan Cafe,5001 Penn Ave,Pittsburgh,PA,True,True,"first floor, to the back, door is on the left ","You do not have to be a paying customer. You are welcome. It is a safe space to hang out, do work, read, talk, anything really. all is welcome. ",40.465229,-79.9438995,2018-09-27T23:38:00.050Z,2020-04-14T21:29:50.407Z,0,0,US,False,44703,True
44726,Morewood Gardens,1090 Morewood Avenue,Pittsburgh,PA,True,True,"On the first floor of Morewood Gardens, behind the kitchen and next to the vending machines. ",You must present a CMU ID at the front desk for building access.,40.4448399,-79.9428803,2018-09-28T14:29:32.296Z,2020-04-14T21:29:55.935Z,0,0,US,False,44726,True
45596,City Works,Two PPG Place,Pittsburgh,PA,False,True,First door on the left in bathroom hallway,"Say you’re going to order at the bar to bypass waitstaff, then turn left. ",40.4405311,-80.0032427,2018-11-02T21:21:41.436Z,2020-04-14T21:27:36.699Z,0,1,US,True,45596,True
45645,Central Outreach Wellness Center ,127 Anderson St.  Suite 101 Timber court ,Pittsburgh,PA,True,True,In the medical clinic office space.  ,"Must be getting an STD check, but its free",40.4486399,-80.0012175,2018-11-04T09:12:28.973Z,2020-04-14T21:28:56.004Z,0,1,US,False,45645,True
45793,Tiki Lounge ,2003 E Carson St. ,Pittsburgh,PA,False,True,"Bottom floor, Men’s and Women’s gender neutral ",both restrooms are gender neutral ,40.4287795,-79.9773733,2018-11-11T01:30:08.883Z,2020-04-14T21:32:11.120Z,0,0,US,False,45793,True
45802,Trixie’s Bar,1323 E Carson St,Pittsburgh,PA,False,True,back of bar,both bathrooms - gender neutral ,40.428945,-79.9843351,2018-11-11T04:20:38.937Z,2020-04-14T21:32:39.303Z,0,1,US,False,45802,True
47344,CCAC North Campus Library,8701 Perry Highway,Pittsburgh,PA,True,True,"After entering the front doors of the building, proceed straight and the library will be on your right. Signage is good, so look for the library sign. The gender neutral restroom is located on the first floor of the library. Enter the library, walk past the stairs that lead to the second floor, go around the corner to the left, and then straight back past the reference desk. The restroom is at the far end of the room.   ",,40.5658203,-80.0401189,2019-02-04T21:29:56.375Z,2019-02-04T21:29:56.397Z,0,0,US,False,47344,True
47500,S&D Polish Deli,2204 Penn Ave,Pittsburgh,PA,False,True,,"No good for pooping, as the door opens directly into a dining area",40.4522655,-79.9818914,2019-02-14T08:07:41.258Z,2019-02-14T08:07:41.294Z,0,0,US,False,47500,True
47502,Blue Moon Bar,5115 Butler St,Pittsburgh,PA,True,True,,21+,40.4788789,-79.9557081,2019-02-14T08:11:00.319Z,2019-02-14T08:11:00.351Z,0,0,US,False,47502,True
47913,Hillman Center for Performing Arts,423 Fox Chapel Rd,Pittsburgh,PA,True,True,"lower level, next to the green room: near the theater’s emergency/handicap accessible exit/entrance","if you’re on campus for an event at the Hillman, this is the one family bathroom in the building",40.5224703,-79.8826891,2019-03-05T09:21:56.417Z,2019-03-05T09:21:56.518Z,0,0,US,False,47913,True
47965,Human Services Building,1 Smithfield St,Pittsburgh,PA,True,True,"Take elevator to lower level, gender neutral bathroom is to left. ",Say you have a meeting in Rachel Carson room and sign in if you are stopped by security guard. ,40.4371183,-80.0010428,2019-03-07T16:30:18.998Z,2019-03-07T16:30:19.026Z,0,0,US,False,47965,True
48061,Elliot ,Washington Road,Pittsburgh ,Pennsylvania ,True,False,,,40.3760972,-80.0474033,2019-03-12T00:29:12.989Z,2019-03-12T00:29:13.041Z,0,0,US,True,48061,True
48080,Mad Mex Waterworks,1041 Freeport Rd,Pittsburgh,PA,False,True,,Not sure on accessible or changing table,40.4884157,-79.885518,2019-03-13T01:52:42.079Z,2019-03-13T01:52:42.108Z,0,0,US,False,48080,True
48081,Burger King,2379 Noblestown Rd,Pittsburgh,PA,False,False,,Gendered single stall,40.426428,-80.0562318,2019-03-13T01:55:41.425Z,2019-03-13T01:55:41.444Z,0,0,US,False,48081,True
48336,Golden Palace Buffet,3607 Forbes Ave,Pittsburgh,PA,False,False,,"There seems to be only one bathroom, marked men's?",40.4408628,-79.9581821,2019-03-22T21:23:03.866Z,2019-03-22T21:23:03.887Z,0,0,US,False,48336,True
48347,First Watch,215 Settlers Ridge Center Dr,Pittsburgh,PA,False,True,,,40.440524,-80.150388,2019-03-23T18:20:01.231Z,2019-03-23T18:20:01.259Z,0,0,US,False,48347,True
48411,Greyhound Bus Station,Grant Street Transportation Center,Pittsburgh ,PA,False,True,Just past vending machines on the right. ,Gender neutral bathroom is always locked. Not sure if you have to ask for keys or something. Been harassed in the men’s restroom. ,40.4447597,-79.9933102,2019-03-25T16:33:59.705Z,2019-03-25T16:33:59.810Z,0,0,US,True,48411,True
48462,Katana,3229 W Liberty Ave,Pittsburgh,PA,False,False,Hallway in very back,"Not actually single stall, but the entire bathroom is lockable (at least the men's room is)",40.3899009,-80.0406617,2019-03-26T00:05:27.179Z,2019-03-26T00:05:27.200Z,0,0,US,False,48462,True
48619,Blaine,"111 9th St, 15222",Pittsburgh ,PA,True,True,On third and fifth floors,"Only accessible when the school is having a performance. You’d have to pay to get in, and even then I’d ask if it would be okay to use.",40.4449443,-79.9985964,2019-03-30T03:31:11.602Z,2019-03-30T03:31:11.623Z,0,0,US,False,48619,True
48650,Bangkok Balcony,5846 Forbes Ave,Pittsburgh,PA,False,False,,Gendered single stall. Signage on the women's room is kind of ambiguous,40.4377594,-79.9211285,2019-03-30T22:52:43.712Z,2019-03-30T22:52:43.821Z,0,0,US,False,48650,True
48911,Escape Room PGH,569 Greenfield Ave Flr 1,Pittsburgh,Pennsylvania,True,True,Follow the hallway all the way back til you're in the bathroom,,40.4262376,-79.939999,2019-04-05T13:55:08.192Z,2019-04-05T13:55:08.221Z,0,0,US,False,48911,True
48960,honeygrow,S Highland Ave,Pittsburgh ,PA,True,False,"Directly to the left from the counter, easily able to use without being a paying customer ",,40.4571257,-79.9251965,2019-04-07T00:05:27.055Z,2019-04-07T00:05:27.074Z,0,1,US,False,48960,True
49123,City-County Building,414 Grant St,Pittsburgh,PA,True,False,"On the first floor of the building, go to the City Controller's offices and there's a safe, public women's restroom in that lobby area",,40.4382355,-79.9966742,2019-04-14T01:34:16.896Z,2019-04-14T01:34:16.916Z,0,0,US,False,49123,True
49202,Kristen,3333 fifth Avenue,Pittsburgh,PA,False,True,Ground floor next to the coat rack,,40.4389338,-79.9631161,2019-04-17T17:55:20.217Z,2019-04-17T17:55:20.236Z,0,0,US,False,49202,True
49204,Aquinas,3333 fifth avenue,Pittsburgh,PA,False,True,Ground floor by the coat rack,You have to have a Carlow University swipe to get into the building,40.4389338,-79.9631161,2019-04-17T17:57:29.050Z,2019-04-17T17:57:29.144Z,0,0,US,False,49204,True
49525,Pie For Breakfast,N Craig St,Pittsburgh,PA,True,True,,,40.45189,-79.9520215,2019-05-03T17:42:43.512Z,2019-05-03T17:42:43.534Z,0,0,US,False,49525,True
50109,Millie's Summer of Soft Serve,6425 Penn Avenue,Pittsburgh,Pennsylvania,False,True,"When you enter, it's to the left, down a short hallway.",I believe you have to be a paying customer.,40.4572258,-79.9166311,2019-05-31T17:54:21.178Z,2019-05-31T17:54:21.300Z,0,0,US,False,50109,True
50127,Driftwood Oven,3615 Butler St,Pittsburgh,PA,False,True,"Back of restaurant, to the left ",Single-person/family restrooms labeled w amenities rather than gender. Must be a paying customer.,40.4658788,-79.9652474,2019-06-01T04:33:29.746Z,2019-06-01T04:33:29.847Z,0,0,US,True,50127,True
50128,Mad Mex Shadyside,220 S Highland Ave,Pittsburgh ,PA,True,True,"Past the bar, down the restroom hallway all the way to the end of the hall.",Large family restroom that can be used by anyone of any gender. A favorite with my trans son.,40.4582389,-79.9252943,2019-06-01T04:38:10.690Z,2019-06-01T04:38:10.796Z,0,4,US,True,50128,True
50203,The Magic Noodle,5892 Forbes Ave,Pittsburgh ,Pa ,False,True,Back of restaurant ,All gender accessible restroom on first floor. Single stall men & women rooms on second floor.,40.4378569,-79.9194691,2019-06-04T23:36:19.892Z,2019-06-04T23:36:20.008Z,0,1,US,False,50203,True
50354,Everyday Noodles,Forbes Ave,Pittsburgh ,PA,True,False,On the back to the left ,Need to be paying customer; you can just buy a to-go tea. Accessibility is dubious — there’s enough room but people crowd into the aisle and there aren’t bars in the restrooms. Both restrooms are gendered single-occupancy.,40.4438535,-79.9509602,2019-06-11T23:27:28.854Z,2019-06-11T23:27:28.961Z,0,0,US,False,50354,True
50701,Bar Louie,322 N Shore Dr,Pittsburgh,Pennsylvania,False,True,,,40.4463893,-80.0105142,2019-06-26T21:52:00.119Z,2019-06-26T21:52:00.215Z,0,0,US,True,50701,True
50708,Cathedral of Learning,4200 Fifth Ave,Pittsburgh,PA,False,True,"Ground floor, near the vending machines.",Need student ID past 11:00 PM.,40.44439,-79.9534133,2019-06-27T01:09:59.692Z,2019-06-27T01:09:59.810Z,0,0,US,True,50708,True
50840,Ineffable Ca Phe,3920 Penn Ave,Pittsburgh ,PA,True,True,"Go through front room, turn right down the hallway. There’s a huge sign on the wall saying NEUTRAL RESTROOMS ","Large sign saying Neutral Restrooms. One is labeled men/women/accessible (multistall, changing table) & the other men/accessible (one stall one open urinal)

Paying customers only ",40.4646749,-79.959312,2019-07-05T17:02:06.233Z,2019-07-05T17:02:06.256Z,0,1,US,True,50840,True
51047,Black Forge Coffee ,701 Chartiers Ave ,Pittsburgh ,PA,False,False,Ground floor back,LGBTQ2+ FRIENDLY heavy metal coffee shop ,40.441238,-80.0382768,2019-07-15T17:04:51.664Z,2019-07-15T17:04:51.804Z,0,0,US,False,51047,True
51048,Black Forge Coffee ,701 Chartiers Ave ,Pittsburgh ,PA ,True,True,Ground floor back,LGBTQ2 + FRIENDLY HEAVY METAL COFFEE SHOP AND VENUE ALL AGES ,40.441238,-80.0382768,2019-07-15T17:06:17.745Z,2019-07-15T17:06:17.785Z,0,0,US,False,51048,True
51052,Black Forge Coffee House,1206 Arlington ave,Pittsburgh ,PA,False,True,In the back,LGBTQ2 + FRIENDLY HEAVY METAL COFFEE SHOP ,40.421515,-79.992435,2019-07-15T18:51:40.214Z,2019-07-15T18:51:40.350Z,0,0,US,False,51052,True
51149,Frick Environmental Center,2005 Beechwood Boulevard,Pittsburgh,PA,True,True,"First floor next to the other bathrooms. Second floor, it is the only bathroom. There is an elevator. Both of these have changing tables.

Outside of the building near the parking lot there are two more bathrooms.",Open to the public.,40.4361599,-79.9088015,2019-07-19T11:31:03.487Z,2019-07-19T11:31:03.515Z,0,1,US,True,51149,True
51343,Banh Mi & Ti,4502 Butler St,Pittsburgh ,PA,False,True,,Paying customer. ,40.4721223,-79.9589038,2019-07-27T22:02:48.667Z,2019-07-27T22:02:48.689Z,0,1,US,False,51343,True
51399,Rose Tea Cafe,5874 Forbes Ave,Pittsburgh ,PA,True,False,"Up the ramp, to the back",Paying customer. Door on ladies room says Koala Bear Care but there’s no changing table ,40.4379194,-79.9201297,2019-07-30T22:52:40.826Z,2019-07-30T22:52:40.865Z,0,0,US,False,51399,True
52198,Pie for Breakfast,200 N Craig St,Pittsburgh ,PA,True,True,Right by the host stand,"Two restrooms, one labeled “all gender with urinal” (not accessible, changing table, one stall w urinal in common space) and one “all gender” (accessible).",40.4499418,-79.9506486,2019-08-26T13:09:50.929Z,2019-08-26T13:09:51.432Z,0,1,US,True,52198,True
52346,Point Park Academic Hall,201 wood street,Pittsburgh,Pennsylvania,True,True,Acedemic Hall entrance behind glass wall. ,Need a student id to enter building,40.4387673,-80.002073,2019-09-03T17:05:46.299Z,2019-09-03T17:05:46.421Z,0,0,US,False,52346,True
52351,Commonplace Coffee,Forbes Ave,Pittsburgh ,PA,True,False,,,40.4438535,-79.9509602,2019-09-04T03:58:42.596Z,2019-09-04T03:58:42.616Z,0,0,US,False,52351,True
52486,William Pitt Union,3959 Fifth Avenue,Pittsburgh,PA,True,True,"Floor 6, room 618 - next to elevators
Floor 8, room 818",May not be accessible at all times for those who are not Pitt students and faculty,40.4434832,-79.9548233,2019-09-11T14:34:38.595Z,2019-09-11T14:34:39.977Z,0,0,US,False,52486,True
52801,La Palapa,2224 E Carson St,Pittsburgh,PA,True,True,"Ground floor, first left by the stairs. Pretty sure is accessible","Have to be a paying customer, nice staff so if it’s an emergency then they’d probably let you in",40.4281588,-79.9735349,2019-09-16T23:34:16.094Z,2019-09-16T23:34:16.203Z,0,0,US,True,52801,True
52804,Giant Eagle,252 Yost Blvd,Pittsburgh,PA,False,False,All the way to the back and on the right by the bakery and tables. Is a single stall and is in good shape,Can go straight in and no one cares.,40.4137241,-79.8514774,2019-09-17T00:03:05.853Z,2019-09-17T00:03:05.971Z,0,0,US,False,52804,True
53197,Eat Unique,South Craig St,Pittsburgh,PA,False,True,"Second level of the cafe, through the doors, in the back next to the stairs","You can come in the front door and go straight into the eating section, turn right and go up the stairs, then go through the white door. I’m not sure if you need to pay but this will avoid interactions with any employees!",40.4458193,-79.9488509,2019-10-05T18:24:51.705Z,2019-10-05T18:24:51.846Z,0,0,US,False,53197,True
53481,Carnegie Museum of Natural History,4400 Forbes Ave,Pittsburgh,Pennsylvania,True,True,"Past the big dinosaur room, through the water room, and to the right on the back wall of the discovery base camp. Family stall",Need to pay admission,40.4432834,-79.9502225,2019-10-19T17:19:53.937Z,2019-10-19T17:19:54.050Z,0,2,US,True,53481,True
53615,Carnegie Museum of Art,Fifth Ave,Pittsburgh,pa,True,True,in the Scaife gallery,paid admission,40.445593,-79.9531841,2019-10-27T20:08:20.176Z,2019-10-27T20:08:20.292Z,0,0,US,True,53615,True
54315,Katana,3229 West Liberty Ave,Pittsburgh,PA,True,True,Back of first floor,,40.3899009,-80.0406617,2019-12-01T22:30:59.392Z,2020-04-14T21:04:10.212Z,0,0,US,False,54315,True
54547,Kiin Lao & Thai Eatery,5846 Forbes Ave,Pittsburgh,PA,False,False,,Gendered single stall. Doors are more gender-marked than when this was Bangkok Balcony,40.4377594,-79.9211285,2019-12-26T22:45:07.730Z,2020-04-14T21:06:05.383Z,0,0,US,False,54547,True
54658,Victory Pointe Arcade,1113 E Carson St,Pittsburgh,PA,False,True,Same floor as entrance. Staff will point you to it. ,"You technically have to be a paying customer, but if you’re nice then they’ll probably let you in. They also have a cafe if you need to buy a low cost thing to use the bathroom. ",40.4289406,-79.9868887,2020-01-03T08:40:57.866Z,2020-04-14T21:06:58.805Z,0,1,US,False,54658,True
55048,Target,6231 Penn Avenue,Pittsburgh,PA,True,True,"Turn right off of the elevator or escalator and the restrooms are on your right side, before the pharmacy. The family restroom is on your right side across from the gendered restrooms. ",,40.4609096,-79.9211941,2020-01-27T17:53:03.855Z,2020-04-14T21:00:47.952Z,2,0,US,True,55048,True
56218,Chatham University: Science Complex: Laboratory Building and Buhl Hall,Chapel Hill Rd,Pittsburgh,PA,True,True,"""All gender"" single occupancy restroom. On floor one (not basement/floor zero) opposite the women's bathroom. Converted previous men's room with urinal and single large stall including hand bars. Main door and stall both lock. Enter through west side door and turn right for shortest route door-to-bathroom.","The bathroom is available for people in the Chatham community, such as students, faculty & staff and their families, people touring the campus, and event attendees.",40.4489392,-79.9249738,2020-06-29T22:28:07.279Z,2020-06-29T22:28:07.382Z,0,0,US,False,56218,True
56318,Salud Juicery ,Fifth Avenue ,Pittsburgh ,PA,False,True,Walk directly to the back on the left side. You will see the door. ,,40.445593,-79.9531841,2020-07-10T19:26:15.334Z,2020-07-10T19:26:15.415Z,0,1,US,False,56318,True
